{
  "type": "FeatureCollection",
  "features": [
    {
      "type": "Feature",
      "properties": {
        "name": "Ski Area Boundary",
        "kind": "boundary",
        "color": "#f8fafc",
        "label": false
      },
      "geometry": {
        "type": "LineString",
        "coordinates": [
          [
            171.522,
            -43.466
          ],
          [
            171.567,
            -43.463
          ],
          [
            171.583,
            -43.49
          ],
          [
            171.574,
            -43.528
          ],
          [
            171.522,
            -43.529
          ],
          [
            171.511,
            -43.493
          ],
          [
            171.522,
            -43.466
          ]
        ]
      }
    },
    {
      "type": "Feature",
      "properties": {
        "name": "Summit Six Chair",
        "kind": "lift",
        "color": "#d9480f",
        "label": true,
        "source": "OpenStreetMap",
        "osmId": 26059141
      },
      "geometry": {
        "type": "LineString",
        "coordinates": [
          [
            171.539497,
            -43.494834
          ],
          [
            171.539349,
            -43.494644
          ],
          [
            171.539301,
            -43.494577
          ],
          [
            171.538985,
            -43.494138
          ],
          [
            171.538508,
            -43.493467
          ],
          [
            171.537954,
            -43.492684
          ],
          [
            171.53792,
            -43.492636
          ],
          [
            171.537052,
            -43.491429
          ],
          [
            171.536886,
            -43.491192
          ],
          [
            171.536555,
            -43.490734
          ],
          [
            171.536299,
            -43.490372
          ],
          [
            171.535687,
            -43.489517
          ],
          [
            171.534864,
            -43.488364
          ],
          [
            171.534316,
            -43.4876
          ],
          [
            171.53377,
            -43.486837
          ],
          [
            171.533364,
            -43.486271
          ],
          [
            171.533167,
            -43.486001
          ],
          [
            171.532492,
            -43.485051
          ],
          [
            171.532337,
            -43.484832
          ],
          [
            171.532313,
            -43.484791
          ],
          [
            171.532284,
            -43.484747
          ],
          [
            171.532146,
            -43.484562
          ]
        ]
      }
    },
    {
      "type": "Feature",
      "properties": {
        "name": "Magic Carpet",
        "kind": "lift",
        "color": "#d9480f",
        "label": true,
        "source": "OpenStreetMap",
        "osmId": 26179081
      },
      "geometry": {
        "type": "LineString",
        "coordinates": [
          [
            171.538746,
            -43.494777
          ],
          [
            171.537082,
            -43.494957
          ]
        ]
      }
    },
    {
      "type": "Feature",
      "properties": {
        "name": "Hubers Run",
        "kind": "run",
        "difficulty": "advanced",
        "color": "#1f2937",
        "label": true,
        "source": "OpenStreetMap",
        "osmId": 40421492
      },
      "geometry": {
        "type": "LineString",
        "coordinates": [
          [
            171.530503,
            -43.48575
          ],
          [
            171.535486,
            -43.488132
          ],
          [
            171.537025,
            -43.489014
          ],
          [
            171.537241,
            -43.489198
          ],
          [
            171.537439,
            -43.489378
          ],
          [
            171.537679,
            -43.489658
          ]
        ]
      }
    },
    {
      "type": "Feature",
      "properties": {
        "name": "Fascination",
        "kind": "run",
        "difficulty": "intermediate",
        "color": "#2563eb",
        "label": true,
        "source": "OpenStreetMap",
        "osmId": 40421574
      },
      "geometry": {
        "type": "LineString",
        "coordinates": [
          [
            171.530363,
            -43.486788
          ],
          [
            171.53272,
            -43.487711
          ],
          [
            171.533414,
            -43.487952
          ],
          [
            171.533943,
            -43.488168
          ],
          [
            171.534894,
            -43.488624
          ],
          [
            171.535664,
            -43.488981
          ],
          [
            171.536725,
            -43.489397
          ],
          [
            171.536905,
            -43.489516
          ],
          [
            171.537046,
            -43.489639
          ],
          [
            171.537238,
            -43.48982
          ]
        ]
      }
    },
    {
      "type": "Feature",
      "properties": {
        "name": "Low Dive",
        "kind": "run",
        "difficulty": "advanced",
        "color": "#1f2937",
        "label": true,
        "source": "OpenStreetMap",
        "osmId": 40421744
      },
      "geometry": {
        "type": "LineString",
        "coordinates": [
          [
            171.540394,
            -43.487057
          ],
          [
            171.538037,
            -43.489512
          ]
        ]
      }
    },
    {
      "type": "Feature",
      "properties": {
        "name": "Bobs Knob",
        "kind": "run",
        "difficulty": "advanced",
        "color": "#1f2937",
        "label": true,
        "source": "OpenStreetMap",
        "osmId": 40421747
      },
      "geometry": {
        "type": "LineString",
        "coordinates": [
          [
            171.546193,
            -43.493173
          ],
          [
            171.546159,
            -43.493258
          ],
          [
            171.546127,
            -43.493299
          ],
          [
            171.546073,
            -43.493325
          ],
          [
            171.542878,
            -43.493736
          ],
          [
            171.540963,
            -43.494321
          ]
        ]
      }
    },
    {
      "type": "Feature",
      "properties": {
        "name": "Log Chute",
        "kind": "run",
        "difficulty": "advanced",
        "color": "#1f2937",
        "label": true,
        "source": "OpenStreetMap",
        "osmId": 40421802
      },
      "geometry": {
        "type": "LineString",
        "coordinates": [
          [
            171.535974,
            -43.495463
          ],
          [
            171.535508,
            -43.495497
          ],
          [
            171.535243,
            -43.495647
          ],
          [
            171.535124,
            -43.496165
          ],
          [
            171.535066,
            -43.496725
          ],
          [
            171.535115,
            -43.497195
          ],
          [
            171.535211,
            -43.497592
          ],
          [
            171.535217,
            -43.498071
          ],
          [
            171.535233,
            -43.498313
          ],
          [
            171.535623,
            -43.498727
          ]
        ]
      }
    },
    {
      "type": "Feature",
      "properties": {
        "name": "Towers Triple Chair",
        "kind": "lift",
        "color": "#d9480f",
        "label": true,
        "source": "OpenStreetMap",
        "osmId": 199922951
      },
      "geometry": {
        "type": "LineString",
        "coordinates": [
          [
            171.536994,
            -43.499274
          ],
          [
            171.536862,
            -43.498902
          ],
          [
            171.536711,
            -43.49834
          ],
          [
            171.536573,
            -43.49789
          ],
          [
            171.536317,
            -43.49705
          ],
          [
            171.536237,
            -43.496794
          ],
          [
            171.535971,
            -43.49592
          ],
          [
            171.535965,
            -43.4959
          ],
          [
            171.535915,
            -43.495718
          ],
          [
            171.535901,
            -43.495673
          ],
          [
            171.535877,
            -43.495605
          ],
          [
            171.535657,
            -43.494853
          ],
          [
            171.535652,
            -43.494834
          ],
          [
            171.535555,
            -43.494537
          ],
          [
            171.535246,
            -43.493507
          ],
          [
            171.535008,
            -43.49273
          ],
          [
            171.534886,
            -43.492318
          ],
          [
            171.534686,
            -43.491659
          ],
          [
            171.534355,
            -43.490563
          ],
          [
            171.534164,
            -43.489916
          ],
          [
            171.533868,
            -43.488951
          ],
          [
            171.53383,
            -43.488824
          ],
          [
            171.533798,
            -43.48872
          ]
        ]
      }
    },
    {
      "type": "Feature",
      "properties": {
        "name": "Norwest Express",
        "kind": "lift",
        "color": "#d9480f",
        "label": true,
        "source": "OpenStreetMap",
        "osmId": 258845251
      },
      "geometry": {
        "type": "LineString",
        "coordinates": [
          [
            171.540131,
            -43.49515
          ],
          [
            171.540003,
            -43.494906
          ],
          [
            171.539986,
            -43.494871
          ],
          [
            171.539815,
            -43.494545
          ],
          [
            171.539563,
            -43.494082
          ],
          [
            171.538988,
            -43.49303
          ],
          [
            171.538548,
            -43.492223
          ],
          [
            171.538126,
            -43.49145
          ],
          [
            171.537611,
            -43.490505
          ],
          [
            171.537478,
            -43.490261
          ],
          [
            171.537348,
            -43.49001
          ]
        ]
      }
    },
    {
      "type": "Feature",
      "properties": {
        "name": "Jans Face",
        "kind": "run",
        "difficulty": "expert",
        "color": "#1f2937",
        "label": true,
        "source": "OpenStreetMap",
        "osmId": 627625382
      },
      "geometry": {
        "type": "LineString",
        "coordinates": [
          [
            171.531085,
            -43.485131
          ],
          [
            171.530797,
            -43.48525
          ],
          [
            171.530699,
            -43.485306
          ],
          [
            171.530614,
            -43.485359
          ],
          [
            171.530517,
            -43.485423
          ],
          [
            171.530424,
            -43.485495
          ],
          [
            171.53028,
            -43.485627
          ],
          [
            171.530245,
            -43.485664
          ],
          [
            171.530226,
            -43.4857
          ],
          [
            171.530219,
            -43.485736
          ],
          [
            171.530224,
            -43.485775
          ],
          [
            171.530234,
            -43.485809
          ],
          [
            171.530248,
            -43.485872
          ],
          [
            171.53018,
            -43.486406
          ],
          [
            171.52974,
            -43.487461
          ],
          [
            171.528919,
            -43.488426
          ],
          [
            171.52863,
            -43.489217
          ],
          [
            171.528815,
            -43.4903
          ],
          [
            171.527862,
            -43.490592
          ],
          [
            171.527084,
            -43.491206
          ],
          [
            171.525891,
            -43.491936
          ],
          [
            171.524981,
            -43.492621
          ],
          [
            171.524619,
            -43.493151
          ],
          [
            171.524662,
            -43.494095
          ],
          [
            171.525198,
            -43.495082
          ],
          [
            171.52719,
            -43.49631
          ],
          [
            171.527712,
            -43.496632
          ],
          [
            171.528649,
            -43.496982
          ]
        ]
      }
    },
    {
      "type": "Feature",
      "properties": {
        "name": "Learners",
        "kind": "run",
        "difficulty": "beginner",
        "color": "#26a64b",
        "label": true,
        "source": "OpenStreetMap",
        "osmId": 627629186
      },
      "geometry": {
        "type": "LineString",
        "coordinates": [
          [
            171.537012,
            -43.494969
          ],
          [
            171.537012,
            -43.495144
          ],
          [
            171.538541,
            -43.495183
          ],
          [
            171.539104,
            -43.495051
          ],
          [
            171.538744,
            -43.494739
          ],
          [
            171.537055,
            -43.494915
          ],
          [
            171.537012,
            -43.494969
          ]
        ]
      }
    },
    {
      "type": "Feature",
      "properties": {
        "name": "Inside Leg",
        "kind": "run",
        "color": "#d9480f",
        "label": true,
        "source": "OpenStreetMap",
        "osmId": 627674886
      },
      "geometry": {
        "type": "LineString",
        "coordinates": [
          [
            171.536555,
            -43.490734
          ],
          [
            171.535641,
            -43.491822
          ],
          [
            171.53577,
            -43.493822
          ],
          [
            171.5371,
            -43.493705
          ],
          [
            171.536555,
            -43.490734
          ]
        ]
      }
    },
    {
      "type": "Feature",
      "properties": {
        "name": "Sunkid Carpet",
        "kind": "lift",
        "color": "#d9480f",
        "label": true,
        "source": "OpenStreetMap",
        "osmId": 996823154
      },
      "geometry": {
        "type": "LineString",
        "coordinates": [
          [
            171.536481,
            -43.495414
          ],
          [
            171.537021,
            -43.495152
          ]
        ]
      }
    },
    {
      "type": "Feature",
      "properties": {
        "name": "International",
        "kind": "run",
        "difficulty": "intermediate",
        "color": "#2563eb",
        "label": true,
        "source": "OpenStreetMap",
        "osmId": 996823155
      },
      "geometry": {
        "type": "LineString",
        "coordinates": [
          [
            171.53225,
            -43.495104
          ],
          [
            171.532186,
            -43.495491
          ],
          [
            171.532173,
            -43.495629
          ],
          [
            171.532036,
            -43.495815
          ],
          [
            171.532001,
            -43.496056
          ],
          [
            171.532015,
            -43.496409
          ],
          [
            171.532557,
            -43.497095
          ],
          [
            171.532925,
            -43.497964
          ],
          [
            171.533409,
            -43.499089
          ],
          [
            171.533676,
            -43.499563
          ],
          [
            171.533871,
            -43.499721
          ],
          [
            171.534152,
            -43.499793
          ],
          [
            171.534488,
            -43.499692
          ],
          [
            171.534805,
            -43.499458
          ],
          [
            171.535171,
            -43.499031
          ],
          [
            171.535428,
            -43.498814
          ],
          [
            171.535623,
            -43.498727
          ],
          [
            171.535879,
            -43.498773
          ],
          [
            171.536205,
            -43.498865
          ],
          [
            171.536383,
            -43.498948
          ],
          [
            171.536639,
            -43.499135
          ],
          [
            171.536834,
            -43.499276
          ],
          [
            171.536874,
            -43.499309
          ],
          [
            171.536895,
            -43.499323
          ],
          [
            171.536919,
            -43.499332
          ],
          [
            171.536952,
            -43.499333
          ],
          [
            171.536977,
            -43.499327
          ],
          [
            171.536992,
            -43.49931
          ],
          [
            171.536997,
            -43.499295
          ],
          [
            171.536994,
            -43.499274
          ]
        ]
      }
    },
    {
      "type": "Feature",
      "properties": {
        "name": "Highway 72",
        "kind": "run",
        "difficulty": "beginner",
        "color": "#26a64b",
        "label": true,
        "source": "OpenStreetMap",
        "osmId": 996823156
      },
      "geometry": {
        "type": "LineString",
        "coordinates": [
          [
            171.537238,
            -43.48982
          ],
          [
            171.5371,
            -43.4899
          ],
          [
            171.536987,
            -43.489984
          ],
          [
            171.536799,
            -43.49019
          ],
          [
            171.536365,
            -43.490726
          ],
          [
            171.536156,
            -43.490877
          ],
          [
            171.534649,
            -43.491931
          ],
          [
            171.534209,
            -43.492279
          ],
          [
            171.533729,
            -43.492817
          ],
          [
            171.533175,
            -43.493338
          ],
          [
            171.533054,
            -43.493466
          ],
          [
            171.533063,
            -43.493542
          ],
          [
            171.533148,
            -43.49361
          ],
          [
            171.533312,
            -43.493622
          ],
          [
            171.534209,
            -43.493427
          ],
          [
            171.534551,
            -43.493421
          ],
          [
            171.535031,
            -43.493549
          ],
          [
            171.535315,
            -43.493656
          ],
          [
            171.535905,
            -43.494209
          ],
          [
            171.536291,
            -43.494381
          ],
          [
            171.536872,
            -43.494511
          ],
          [
            171.537568,
            -43.494475
          ],
          [
            171.538321,
            -43.494492
          ],
          [
            171.538837,
            -43.494621
          ],
          [
            171.538975,
            -43.494712
          ],
          [
            171.539228,
            -43.494878
          ],
          [
            171.539461,
            -43.495063
          ]
        ]
      }
    },
    {
      "type": "Feature",
      "properties": {
        "name": "International Express",
        "kind": "run",
        "difficulty": "intermediate",
        "color": "#2563eb",
        "label": true,
        "source": "OpenStreetMap",
        "osmId": 996823157
      },
      "geometry": {
        "type": "LineString",
        "coordinates": [
          [
            171.535962,
            -43.489683
          ],
          [
            171.536064,
            -43.489791
          ],
          [
            171.536109,
            -43.489891
          ],
          [
            171.536119,
            -43.489967
          ],
          [
            171.536104,
            -43.490055
          ],
          [
            171.536049,
            -43.490173
          ],
          [
            171.535981,
            -43.490306
          ],
          [
            171.535876,
            -43.490448
          ],
          [
            171.535756,
            -43.490571
          ],
          [
            171.535347,
            -43.49098
          ],
          [
            171.534829,
            -43.491507
          ],
          [
            171.534476,
            -43.491711
          ],
          [
            171.534153,
            -43.492027
          ],
          [
            171.533655,
            -43.492528
          ],
          [
            171.533578,
            -43.492602
          ],
          [
            171.532935,
            -43.493222
          ],
          [
            171.532626,
            -43.493735
          ],
          [
            171.532579,
            -43.493888
          ],
          [
            171.532326,
            -43.494619
          ],
          [
            171.53225,
            -43.495104
          ]
        ]
      }
    },
    {
      "type": "Feature",
      "properties": {
        "name": "Diggers Road",
        "kind": "run",
        "difficulty": "intermediate",
        "color": "#2563eb",
        "label": true,
        "source": "OpenStreetMap",
        "osmId": 996823158
      },
      "geometry": {
        "type": "LineString",
        "coordinates": [
          [
            171.53225,
            -43.495104
          ],
          [
            171.532461,
            -43.495175
          ],
          [
            171.533038,
            -43.495256
          ],
          [
            171.533542,
            -43.495331
          ],
          [
            171.533863,
            -43.495308
          ],
          [
            171.534231,
            -43.49524
          ],
          [
            171.534629,
            -43.495244
          ],
          [
            171.535185,
            -43.495248
          ],
          [
            171.535716,
            -43.495308
          ],
          [
            171.535838,
            -43.495356
          ],
          [
            171.535932,
            -43.495408
          ],
          [
            171.535974,
            -43.495463
          ]
        ]
      }
    },
    {
      "type": "Feature",
      "properties": {
        "name": "Run 996823159",
        "kind": "run",
        "color": "#d9480f",
        "label": false,
        "source": "OpenStreetMap",
        "osmId": 996823159
      },
      "geometry": {
        "type": "LineString",
        "coordinates": [
          [
            171.533054,
            -43.493466
          ],
          [
            171.532756,
            -43.493792
          ],
          [
            171.532579,
            -43.493888
          ]
        ]
      }
    },
    {
      "type": "Feature",
      "properties": {
        "name": "Wayleggo",
        "kind": "run",
        "difficulty": "intermediate",
        "color": "#2563eb",
        "label": true,
        "source": "OpenStreetMap",
        "osmId": 996823160
      },
      "geometry": {
        "type": "LineString",
        "coordinates": [
          [
            171.532756,
            -43.493792
          ],
          [
            171.532774,
            -43.493852
          ],
          [
            171.532881,
            -43.493862
          ],
          [
            171.533848,
            -43.493781
          ],
          [
            171.534185,
            -43.493734
          ],
          [
            171.534793,
            -43.493766
          ],
          [
            171.535076,
            -43.493847
          ],
          [
            171.535246,
            -43.494001
          ],
          [
            171.535347,
            -43.494338
          ],
          [
            171.535504,
            -43.494656
          ],
          [
            171.535565,
            -43.494746
          ],
          [
            171.535661,
            -43.494791
          ],
          [
            171.5358,
            -43.494775
          ],
          [
            171.536034,
            -43.494747
          ],
          [
            171.536428,
            -43.494717
          ],
          [
            171.5368,
            -43.494774
          ],
          [
            171.537292,
            -43.49476
          ],
          [
            171.537978,
            -43.494664
          ],
          [
            171.538636,
            -43.494683
          ],
          [
            171.538975,
            -43.494712
          ]
        ]
      }
    },
    {
      "type": "Feature",
      "properties": {
        "name": "Back Paddock",
        "kind": "run",
        "difficulty": "beginner",
        "color": "#26a64b",
        "label": true,
        "source": "OpenStreetMap",
        "osmId": 996823161
      },
      "geometry": {
        "type": "LineString",
        "coordinates": [
          [
            171.532579,
            -43.493888
          ],
          [
            171.532853,
            -43.494015
          ],
          [
            171.533087,
            -43.494201
          ],
          [
            171.532997,
            -43.494547
          ],
          [
            171.532979,
            -43.494675
          ],
          [
            171.533051,
            -43.494804
          ],
          [
            171.533325,
            -43.494916
          ],
          [
            171.533599,
            -43.494963
          ],
          [
            171.533899,
            -43.494856
          ],
          [
            171.534595,
            -43.494576
          ],
          [
            171.534713,
            -43.494549
          ],
          [
            171.534774,
            -43.494619
          ],
          [
            171.534729,
            -43.494757
          ],
          [
            171.534519,
            -43.495008
          ],
          [
            171.534465,
            -43.495117
          ],
          [
            171.534537,
            -43.495198
          ],
          [
            171.534629,
            -43.495244
          ]
        ]
      }
    },
    {
      "type": "Feature",
      "properties": {
        "name": "Hoods Hollow",
        "kind": "run",
        "difficulty": "beginner",
        "color": "#26a64b",
        "label": true,
        "source": "OpenStreetMap",
        "osmId": 996823162
      },
      "geometry": {
        "type": "LineString",
        "coordinates": [
          [
            171.53777,
            -43.489835
          ],
          [
            171.537853,
            -43.489939
          ],
          [
            171.537941,
            -43.490104
          ],
          [
            171.538271,
            -43.490396
          ],
          [
            171.538724,
            -43.490641
          ],
          [
            171.538767,
            -43.490744
          ],
          [
            171.538654,
            -43.490898
          ],
          [
            171.53841,
            -43.491069
          ],
          [
            171.537887,
            -43.491239
          ],
          [
            171.537774,
            -43.491283
          ],
          [
            171.537653,
            -43.491415
          ],
          [
            171.537502,
            -43.491631
          ],
          [
            171.5374,
            -43.491856
          ],
          [
            171.537322,
            -43.492065
          ],
          [
            171.53728,
            -43.492305
          ],
          [
            171.537277,
            -43.492534
          ],
          [
            171.537282,
            -43.492738
          ],
          [
            171.53749,
            -43.493097
          ],
          [
            171.537798,
            -43.493389
          ],
          [
            171.538089,
            -43.493491
          ],
          [
            171.538309,
            -43.493391
          ],
          [
            171.538653,
            -43.493182
          ],
          [
            171.538838,
            -43.49316
          ],
          [
            171.538979,
            -43.493157
          ],
          [
            171.539129,
            -43.49318
          ],
          [
            171.539244,
            -43.493241
          ],
          [
            171.539326,
            -43.493355
          ],
          [
            171.539395,
            -43.493504
          ],
          [
            171.539632,
            -43.493901
          ],
          [
            171.539845,
            -43.494115
          ],
          [
            171.539956,
            -43.49426
          ],
          [
            171.540024,
            -43.494461
          ],
          [
            171.540012,
            -43.494667
          ]
        ]
      }
    },
    {
      "type": "Feature",
      "properties": {
        "name": "Lex's Way",
        "kind": "run",
        "difficulty": "intermediate",
        "color": "#2563eb",
        "label": true,
        "source": "OpenStreetMap",
        "osmId": 996823163
      },
      "geometry": {
        "type": "LineString",
        "coordinates": [
          [
            171.538653,
            -43.493182
          ],
          [
            171.539238,
            -43.494254
          ],
          [
            171.53935,
            -43.494447
          ],
          [
            171.539532,
            -43.494631
          ]
        ]
      }
    },
    {
      "type": "Feature",
      "properties": {
        "name": "Lex's Way",
        "kind": "run",
        "color": "#d9480f",
        "label": false,
        "source": "OpenStreetMap",
        "osmId": 996823164
      },
      "geometry": {
        "type": "LineString",
        "coordinates": [
          [
            171.537861,
            -43.491309
          ],
          [
            171.537875,
            -43.491348
          ],
          [
            171.538017,
            -43.491833
          ],
          [
            171.53814,
            -43.492159
          ],
          [
            171.538443,
            -43.492741
          ],
          [
            171.538653,
            -43.493182
          ]
        ]
      }
    },
    {
      "type": "Feature",
      "properties": {
        "name": "Broadway",
        "kind": "run",
        "difficulty": "intermediate",
        "color": "#2563eb",
        "label": true,
        "source": "OpenStreetMap",
        "osmId": 996823165
      },
      "geometry": {
        "type": "LineString",
        "coordinates": [
          [
            171.538037,
            -43.489512
          ],
          [
            171.538199,
            -43.489559
          ],
          [
            171.538307,
            -43.489605
          ],
          [
            171.540336,
            -43.490974
          ],
          [
            171.540698,
            -43.491259
          ],
          [
            171.540808,
            -43.492168
          ],
          [
            171.541025,
            -43.49395
          ],
          [
            171.540963,
            -43.494321
          ]
        ]
      }
    },
    {
      "type": "Feature",
      "properties": {
        "name": "Morning Glory",
        "kind": "run",
        "difficulty": "intermediate",
        "color": "#2563eb",
        "label": false,
        "source": "OpenStreetMap",
        "osmId": 996826044
      },
      "geometry": {
        "type": "LineString",
        "coordinates": [
          [
            171.532146,
            -43.484562
          ],
          [
            171.532095,
            -43.484496
          ],
          [
            171.532042,
            -43.484498
          ],
          [
            171.532003,
            -43.484503
          ],
          [
            171.531959,
            -43.484512
          ],
          [
            171.531926,
            -43.484524
          ],
          [
            171.531889,
            -43.484544
          ],
          [
            171.53185,
            -43.484575
          ],
          [
            171.531785,
            -43.484631
          ],
          [
            171.531734,
            -43.484684
          ],
          [
            171.531676,
            -43.484733
          ],
          [
            171.531085,
            -43.485131
          ],
          [
            171.530886,
            -43.485285
          ],
          [
            171.530503,
            -43.48575
          ],
          [
            171.53041,
            -43.486371
          ],
          [
            171.530363,
            -43.486788
          ],
          [
            171.530315,
            -43.487215
          ],
          [
            171.53022,
            -43.487539
          ],
          [
            171.529982,
            -43.488056
          ],
          [
            171.529676,
            -43.488687
          ],
          [
            171.529554,
            -43.489134
          ],
          [
            171.529618,
            -43.489433
          ],
          [
            171.529824,
            -43.489447
          ],
          [
            171.530471,
            -43.489167
          ],
          [
            171.532092,
            -43.488602
          ],
          [
            171.532374,
            -43.488522
          ],
          [
            171.532545,
            -43.488483
          ],
          [
            171.532787,
            -43.488457
          ],
          [
            171.532982,
            -43.48847
          ],
          [
            171.533112,
            -43.488496
          ],
          [
            171.533225,
            -43.48854
          ],
          [
            171.533499,
            -43.488568
          ]
        ]
      }
    },
    {
      "type": "Feature",
      "properties": {
        "name": "Chair Bowl",
        "kind": "run",
        "difficulty": "intermediate",
        "color": "#2563eb",
        "label": false,
        "source": "OpenStreetMap",
        "osmId": 996826045
      },
      "geometry": {
        "type": "LineString",
        "coordinates": [
          [
            171.533499,
            -43.488568
          ],
          [
            171.533126,
            -43.48901
          ],
          [
            171.532919,
            -43.489369
          ],
          [
            171.533011,
            -43.489743
          ],
          [
            171.53341,
            -43.489903
          ],
          [
            171.534006,
            -43.489887
          ],
          [
            171.534244,
            -43.489875
          ],
          [
            171.534398,
            -43.489911
          ],
          [
            171.534576,
            -43.48993
          ],
          [
            171.534746,
            -43.489922
          ],
          [
            171.534954,
            -43.489908
          ],
          [
            171.535216,
            -43.489875
          ],
          [
            171.535447,
            -43.48982
          ],
          [
            171.535632,
            -43.48975
          ],
          [
            171.535742,
            -43.489717
          ],
          [
            171.535855,
            -43.489694
          ],
          [
            171.535962,
            -43.489683
          ],
          [
            171.536183,
            -43.489685
          ],
          [
            171.536336,
            -43.489698
          ],
          [
            171.53648,
            -43.489706
          ],
          [
            171.536602,
            -43.489705
          ],
          [
            171.536727,
            -43.489687
          ],
          [
            171.536845,
            -43.489674
          ],
          [
            171.537046,
            -43.489639
          ]
        ]
      }
    },
    {
      "type": "Feature",
      "properties": {
        "name": "Wylie's Way",
        "kind": "run",
        "difficulty": "intermediate",
        "color": "#2563eb",
        "label": false,
        "source": "OpenStreetMap",
        "osmId": 996826046
      },
      "geometry": {
        "type": "LineString",
        "coordinates": [
          [
            171.529618,
            -43.489433
          ],
          [
            171.529758,
            -43.489669
          ],
          [
            171.529999,
            -43.489859
          ],
          [
            171.530293,
            -43.489988
          ],
          [
            171.530647,
            -43.490124
          ],
          [
            171.530776,
            -43.490211
          ],
          [
            171.530835,
            -43.490352
          ],
          [
            171.530849,
            -43.490394
          ],
          [
            171.530899,
            -43.490409
          ],
          [
            171.530942,
            -43.490382
          ],
          [
            171.531066,
            -43.490155
          ],
          [
            171.531334,
            -43.489783
          ],
          [
            171.53181,
            -43.489275
          ],
          [
            171.531928,
            -43.489145
          ],
          [
            171.53198,
            -43.489039
          ],
          [
            171.532036,
            -43.488895
          ],
          [
            171.53227,
            -43.488627
          ],
          [
            171.532374,
            -43.488522
          ]
        ]
      }
    },
    {
      "type": "Feature",
      "properties": {
        "name": "Platter Splatter",
        "kind": "run",
        "difficulty": "advanced",
        "color": "#1f2937",
        "label": false,
        "source": "OpenStreetMap",
        "osmId": 996826047
      },
      "geometry": {
        "type": "LineString",
        "coordinates": [
          [
            171.542398,
            -43.488053
          ],
          [
            171.540698,
            -43.491259
          ]
        ]
      }
    },
    {
      "type": "Feature",
      "properties": {
        "name": "Virgin Mile",
        "kind": "run",
        "difficulty": "advanced",
        "color": "#1f2937",
        "label": false,
        "source": "OpenStreetMap",
        "osmId": 996826048
      },
      "geometry": {
        "type": "LineString",
        "coordinates": [
          [
            171.531085,
            -43.485131
          ],
          [
            171.53116,
            -43.485174
          ],
          [
            171.531246,
            -43.485202
          ],
          [
            171.531341,
            -43.48523
          ],
          [
            171.532826,
            -43.485453
          ],
          [
            171.534289,
            -43.485646
          ],
          [
            171.534656,
            -43.485699
          ],
          [
            171.534893,
            -43.485755
          ],
          [
            171.535101,
            -43.485755
          ],
          [
            171.535509,
            -43.485704
          ],
          [
            171.535855,
            -43.485728
          ],
          [
            171.536268,
            -43.485814
          ],
          [
            171.536656,
            -43.485887
          ],
          [
            171.537159,
            -43.486052
          ],
          [
            171.53778,
            -43.486269
          ],
          [
            171.538422,
            -43.486444
          ],
          [
            171.539088,
            -43.486554
          ],
          [
            171.539693,
            -43.486677
          ],
          [
            171.54001,
            -43.48688
          ],
          [
            171.540394,
            -43.487057
          ],
          [
            171.540515,
            -43.487113
          ],
          [
            171.54108,
            -43.487452
          ],
          [
            171.541399,
            -43.48769
          ],
          [
            171.541542,
            -43.487835
          ],
          [
            171.541652,
            -43.487905
          ],
          [
            171.542273,
            -43.488022
          ],
          [
            171.542398,
            -43.488053
          ],
          [
            171.54268,
            -43.488122
          ],
          [
            171.544023,
            -43.488773
          ],
          [
            171.544887,
            -43.489219
          ],
          [
            171.545201,
            -43.489477
          ],
          [
            171.545566,
            -43.489811
          ],
          [
            171.545776,
            -43.490026
          ],
          [
            171.54615,
            -43.490377
          ],
          [
            171.546282,
            -43.490541
          ],
          [
            171.54634,
            -43.490726
          ],
          [
            171.54647,
            -43.491007
          ],
          [
            171.546563,
            -43.491173
          ],
          [
            171.546565,
            -43.491309
          ],
          [
            171.546501,
            -43.491447
          ],
          [
            171.546519,
            -43.491577
          ],
          [
            171.546537,
            -43.491692
          ],
          [
            171.546541,
            -43.491783
          ],
          [
            171.546537,
            -43.49187
          ],
          [
            171.546523,
            -43.491952
          ],
          [
            171.546484,
            -43.492056
          ],
          [
            171.546461,
            -43.492135
          ],
          [
            171.54644,
            -43.492231
          ],
          [
            171.546321,
            -43.493046
          ],
          [
            171.546308,
            -43.493089
          ],
          [
            171.546289,
            -43.493119
          ],
          [
            171.546264,
            -43.493148
          ],
          [
            171.546231,
            -43.493167
          ],
          [
            171.546193,
            -43.493173
          ],
          [
            171.546147,
            -43.49317
          ],
          [
            171.546102,
            -43.493154
          ],
          [
            171.546051,
            -43.49313
          ],
          [
            171.54602,
            -43.493099
          ],
          [
            171.545989,
            -43.493055
          ],
          [
            171.545944,
            -43.492967
          ],
          [
            171.54591,
            -43.492859
          ],
          [
            171.545816,
            -43.492372
          ],
          [
            171.545782,
            -43.492279
          ],
          [
            171.54573,
            -43.492173
          ],
          [
            171.545657,
            -43.492072
          ],
          [
            171.545562,
            -43.491969
          ],
          [
            171.545441,
            -43.491877
          ],
          [
            171.545281,
            -43.491775
          ],
          [
            171.545097,
            -43.491706
          ],
          [
            171.544912,
            -43.491646
          ],
          [
            171.544721,
            -43.491599
          ],
          [
            171.544488,
            -43.491561
          ],
          [
            171.543773,
            -43.491506
          ],
          [
            171.542762,
            -43.491475
          ],
          [
            171.542622,
            -43.491484
          ],
          [
            171.54238,
            -43.491535
          ],
          [
            171.54208,
            -43.491645
          ],
          [
            171.540808,
            -43.492168
          ]
        ]
      }
    },
    {
      "type": "Feature",
      "properties": {
        "name": "Run 1418574727",
        "kind": "run",
        "color": "#d9480f",
        "label": false,
        "source": "OpenStreetMap",
        "osmId": 1418574727
      },
      "geometry": {
        "type": "LineString",
        "coordinates": [
          [
            171.537238,
            -43.48982
          ],
          [
            171.537679,
            -43.489658
          ],
          [
            171.538037,
            -43.489512
          ]
        ]
      }
    },
    {
      "type": "Feature",
      "properties": {
        "name": "Run 1418574728",
        "kind": "run",
        "difficulty": "beginner",
        "color": "#26a64b",
        "label": false,
        "source": "OpenStreetMap",
        "osmId": 1418574728
      },
      "geometry": {
        "type": "LineString",
        "coordinates": [
          [
            171.537348,
            -43.49001
          ],
          [
            171.537238,
            -43.48982
          ]
        ]
      }
    },
    {
      "type": "Feature",
      "properties": {
        "name": "Run 1418574729",
        "kind": "run",
        "difficulty": "beginner",
        "color": "#26a64b",
        "label": false,
        "source": "OpenStreetMap",
        "osmId": 1418574729
      },
      "geometry": {
        "type": "LineString",
        "coordinates": [
          [
            171.537679,
            -43.489658
          ],
          [
            171.53777,
            -43.489835
          ]
        ]
      }
    },
    {
      "type": "Feature",
      "properties": {
        "name": "Run 1418574730",
        "kind": "run",
        "color": "#d9480f",
        "label": false,
        "source": "OpenStreetMap",
        "osmId": 1418574730
      },
      "geometry": {
        "type": "LineString",
        "coordinates": [
          [
            171.533764,
            -43.488602
          ],
          [
            171.533499,
            -43.488568
          ]
        ]
      }
    },
    {
      "type": "Feature",
      "properties": {
        "name": "Run 1418574731",
        "kind": "run",
        "difficulty": "intermediate",
        "color": "#2563eb",
        "label": false,
        "source": "OpenStreetMap",
        "osmId": 1418574731
      },
      "geometry": {
        "type": "LineString",
        "coordinates": [
          [
            171.533764,
            -43.488602
          ],
          [
            171.534894,
            -43.488624
          ]
        ]
      }
    },
    {
      "type": "Feature",
      "properties": {
        "name": "Run 1418574732",
        "kind": "run",
        "color": "#d9480f",
        "label": false,
        "source": "OpenStreetMap",
        "osmId": 1418574732
      },
      "geometry": {
        "type": "LineString",
        "coordinates": [
          [
            171.533798,
            -43.48872
          ],
          [
            171.533764,
            -43.488602
          ]
        ]
      }
    },
    {
      "type": "Feature",
      "properties": {
        "name": "Run 1418574733",
        "kind": "run",
        "difficulty": "intermediate",
        "color": "#2563eb",
        "label": false,
        "source": "OpenStreetMap",
        "osmId": 1418574733
      },
      "geometry": {
        "type": "LineString",
        "coordinates": [
          [
            171.533414,
            -43.487952
          ],
          [
            171.533403,
            -43.488253
          ],
          [
            171.533499,
            -43.488568
          ]
        ]
      }
    },
    {
      "type": "Feature",
      "properties": {
        "name": "Lex's Way",
        "kind": "run",
        "color": "#d9480f",
        "label": false,
        "source": "OpenStreetMap",
        "osmId": 1418574734
      },
      "geometry": {
        "type": "LineString",
        "coordinates": [
          [
            171.53777,
            -43.489835
          ],
          [
            171.537768,
            -43.489981
          ],
          [
            171.537727,
            -43.490103
          ],
          [
            171.537704,
            -43.490246
          ],
          [
            171.537712,
            -43.490558
          ],
          [
            171.537694,
            -43.490795
          ],
          [
            171.53772,
            -43.491026
          ],
          [
            171.537803,
            -43.491216
          ]
        ]
      }
    },
    {
      "type": "Feature",
      "properties": {
        "name": "Lex's Way",
        "kind": "run",
        "color": "#d9480f",
        "label": false,
        "source": "OpenStreetMap",
        "osmId": 1418574735
      },
      "geometry": {
        "type": "LineString",
        "coordinates": [
          [
            171.537803,
            -43.491216
          ],
          [
            171.537861,
            -43.491309
          ]
        ]
      }
    },
    {
      "type": "Feature",
      "properties": {
        "name": "Run 1418574736",
        "kind": "run",
        "difficulty": "intermediate",
        "color": "#2563eb",
        "label": false,
        "source": "OpenStreetMap",
        "osmId": 1418574736
      },
      "geometry": {
        "type": "LineString",
        "coordinates": [
          [
            171.540963,
            -43.494321
          ],
          [
            171.540012,
            -43.494667
          ],
          [
            171.539772,
            -43.494794
          ]
        ]
      }
    },
    {
      "type": "Feature",
      "properties": {
        "name": "Run 1418574737",
        "kind": "run",
        "color": "#d9480f",
        "label": false,
        "source": "OpenStreetMap",
        "osmId": 1418574737
      },
      "geometry": {
        "type": "LineString",
        "coordinates": [
          [
            171.539532,
            -43.494631
          ],
          [
            171.539696,
            -43.494724
          ],
          [
            171.539772,
            -43.494794
          ],
          [
            171.539801,
            -43.494857
          ],
          [
            171.539799,
            -43.494917
          ],
          [
            171.539784,
            -43.494974
          ],
          [
            171.539725,
            -43.49501
          ],
          [
            171.539594,
            -43.495034
          ],
          [
            171.539461,
            -43.495063
          ]
        ]
      }
    },
    {
      "type": "Feature",
      "properties": {
        "name": "Run 1418574738",
        "kind": "run",
        "color": "#d9480f",
        "label": false,
        "source": "OpenStreetMap",
        "osmId": 1418574738
      },
      "geometry": {
        "type": "LineString",
        "coordinates": [
          [
            171.539461,
            -43.495063
          ],
          [
            171.539914,
            -43.495197
          ],
          [
            171.540096,
            -43.49525
          ],
          [
            171.540134,
            -43.495249
          ],
          [
            171.54016,
            -43.495238
          ],
          [
            171.540169,
            -43.495222
          ],
          [
            171.540158,
            -43.495187
          ],
          [
            171.540131,
            -43.49515
          ]
        ]
      }
    },
    {
      "type": "Feature",
      "properties": {
        "name": "Run 1418574739",
        "kind": "run",
        "color": "#d9480f",
        "label": false,
        "source": "OpenStreetMap",
        "osmId": 1418574739
      },
      "geometry": {
        "type": "LineString",
        "coordinates": [
          [
            171.539532,
            -43.494631
          ],
          [
            171.539494,
            -43.494696
          ],
          [
            171.539498,
            -43.494724
          ],
          [
            171.539512,
            -43.494754
          ],
          [
            171.539567,
            -43.49483
          ],
          [
            171.539581,
            -43.494855
          ],
          [
            171.539581,
            -43.49487
          ],
          [
            171.539572,
            -43.494881
          ],
          [
            171.539553,
            -43.494882
          ],
          [
            171.539528,
            -43.494873
          ],
          [
            171.539513,
            -43.494861
          ],
          [
            171.539497,
            -43.494834
          ]
        ]
      }
    },
    {
      "type": "Feature",
      "properties": {
        "name": "Run 1418574740",
        "kind": "run",
        "color": "#d9480f",
        "label": false,
        "source": "OpenStreetMap",
        "osmId": 1418574740
      },
      "geometry": {
        "type": "LineString",
        "coordinates": [
          [
            171.535974,
            -43.495463
          ],
          [
            171.536004,
            -43.495529
          ],
          [
            171.53602,
            -43.495606
          ],
          [
            171.536008,
            -43.49563
          ],
          [
            171.53598,
            -43.495657
          ],
          [
            171.535901,
            -43.495673
          ]
        ]
      }
    },
    {
      "type": "Feature",
      "properties": {
        "name": "Dog Leg",
        "kind": "run",
        "difficulty": "expert",
        "color": "#1f2937",
        "label": false,
        "source": "OpenStreetMap",
        "osmId": 1510522794
      },
      "geometry": {
        "type": "LineString",
        "coordinates": [
          [
            171.528815,
            -43.4903
          ],
          [
            171.529091,
            -43.490364
          ],
          [
            171.529459,
            -43.490364
          ],
          [
            171.529821,
            -43.490356
          ],
          [
            171.530072,
            -43.490339
          ],
          [
            171.530376,
            -43.49032
          ],
          [
            171.530711,
            -43.490487
          ],
          [
            171.530918,
            -43.490792
          ],
          [
            171.531157,
            -43.491148
          ],
          [
            171.531589,
            -43.491799
          ],
          [
            171.531688,
            -43.491948
          ],
          [
            171.53179,
            -43.492115
          ],
          [
            171.532023,
            -43.492497
          ],
          [
            171.532255,
            -43.492923
          ],
          [
            171.532389,
            -43.493245
          ],
          [
            171.532579,
            -43.493888
          ]
        ]
      }
    },
    {
      "type": "Feature",
      "properties": {
        "name": "Whistle Bowl",
        "kind": "run",
        "difficulty": "expert",
        "color": "#1f2937",
        "label": false,
        "source": "OpenStreetMap",
        "osmId": 1510522795
      },
      "geometry": {
        "type": "LineString",
        "coordinates": [
          [
            171.529091,
            -43.490364
          ],
          [
            171.52901,
            -43.490573
          ],
          [
            171.528969,
            -43.490874
          ],
          [
            171.529039,
            -43.491183
          ],
          [
            171.529315,
            -43.491369
          ],
          [
            171.52969,
            -43.491441
          ],
          [
            171.530182,
            -43.491645
          ],
          [
            171.530382,
            -43.491969
          ],
          [
            171.53044,
            -43.492267
          ],
          [
            171.530862,
            -43.492443
          ],
          [
            171.531312,
            -43.492594
          ],
          [
            171.531776,
            -43.493194
          ],
          [
            171.532579,
            -43.493888
          ]
        ]
      }
    },
    {
      "type": "Feature",
      "properties": {
        "name": "Chute 3",
        "kind": "run",
        "difficulty": "expert",
        "color": "#1f2937",
        "label": false,
        "source": "OpenStreetMap",
        "osmId": 1510522796
      },
      "geometry": {
        "type": "LineString",
        "coordinates": [
          [
            171.530072,
            -43.490339
          ],
          [
            171.530135,
            -43.49048
          ],
          [
            171.530235,
            -43.490646
          ],
          [
            171.53031,
            -43.490839
          ],
          [
            171.530433,
            -43.49102
          ],
          [
            171.530646,
            -43.49127
          ],
          [
            171.5309,
            -43.491568
          ],
          [
            171.531191,
            -43.492068
          ],
          [
            171.531312,
            -43.492594
          ]
        ]
      }
    },
    {
      "type": "Feature",
      "properties": {
        "name": "1st Chute",
        "kind": "run",
        "difficulty": "expert",
        "color": "#1f2937",
        "label": false,
        "source": "OpenStreetMap",
        "osmId": 1510522797
      },
      "geometry": {
        "type": "LineString",
        "coordinates": [
          [
            171.527862,
            -43.490592
          ],
          [
            171.527994,
            -43.491586
          ],
          [
            171.528217,
            -43.492366
          ],
          [
            171.528284,
            -43.492875
          ],
          [
            171.528413,
            -43.493448
          ],
          [
            171.528395,
            -43.49397
          ],
          [
            171.528279,
            -43.49454
          ],
          [
            171.528215,
            -43.494925
          ],
          [
            171.528286,
            -43.495348
          ],
          [
            171.528445,
            -43.495932
          ],
          [
            171.52852,
            -43.496463
          ],
          [
            171.528649,
            -43.496982
          ]
        ]
      }
    },
    {
      "type": "Feature",
      "properties": {
        "name": "Muesli Bowl",
        "kind": "run",
        "difficulty": "expert",
        "color": "#1f2937",
        "label": false,
        "source": "OpenStreetMap",
        "osmId": 1510522798
      },
      "geometry": {
        "type": "LineString",
        "coordinates": [
          [
            171.528649,
            -43.496982
          ],
          [
            171.529061,
            -43.497214
          ],
          [
            171.52971,
            -43.497938
          ],
          [
            171.530132,
            -43.498571
          ],
          [
            171.531341,
            -43.499144
          ],
          [
            171.532818,
            -43.499582
          ],
          [
            171.533676,
            -43.499563
          ]
        ]
      }
    },
    {
      "type": "Feature",
      "properties": {
        "name": "The Ramp",
        "kind": "run",
        "difficulty": "advanced",
        "color": "#1f2937",
        "label": false,
        "source": "OpenStreetMap",
        "osmId": 1510522799
      },
      "geometry": {
        "type": "LineString",
        "coordinates": [
          [
            171.528286,
            -43.495348
          ],
          [
            171.528631,
            -43.495432
          ],
          [
            171.528924,
            -43.495713
          ],
          [
            171.529211,
            -43.496057
          ],
          [
            171.529779,
            -43.496478
          ],
          [
            171.530226,
            -43.496947
          ],
          [
            171.53068,
            -43.497078
          ],
          [
            171.531053,
            -43.497427
          ],
          [
            171.531254,
            -43.497867
          ],
          [
            171.531541,
            -43.498356
          ],
          [
            171.531948,
            -43.49871
          ],
          [
            171.532348,
            -43.499102
          ],
          [
            171.532818,
            -43.499582
          ]
        ]
      }
    },
    {
      "type": "Feature",
      "properties": {
        "name": "Main Chute",
        "kind": "run",
        "difficulty": "advanced",
        "color": "#1f2937",
        "label": false,
        "source": "OpenStreetMap",
        "osmId": 1510522800
      },
      "geometry": {
        "type": "LineString",
        "coordinates": [
          [
            171.527084,
            -43.491206
          ],
          [
            171.527116,
            -43.491602
          ],
          [
            171.527302,
            -43.492024
          ],
          [
            171.527429,
            -43.492634
          ],
          [
            171.527636,
            -43.493098
          ],
          [
            171.527663,
            -43.493534
          ],
          [
            171.527743,
            -43.494067
          ],
          [
            171.52767,
            -43.494653
          ],
          [
            171.52753,
            -43.495456
          ],
          [
            171.52761,
            -43.496115
          ],
          [
            171.527712,
            -43.496632
          ]
        ]
      }
    },
    {
      "type": "Feature",
      "properties": {
        "name": "Saddle Face",
        "kind": "run",
        "difficulty": "advanced",
        "color": "#1f2937",
        "label": false,
        "source": "OpenStreetMap",
        "osmId": 1510522801
      },
      "geometry": {
        "type": "LineString",
        "coordinates": [
          [
            171.525891,
            -43.491936
          ],
          [
            171.525687,
            -43.492692
          ],
          [
            171.525721,
            -43.493065
          ],
          [
            171.525741,
            -43.493645
          ],
          [
            171.525981,
            -43.494188
          ],
          [
            171.526308,
            -43.494711
          ],
          [
            171.526522,
            -43.495132
          ],
          [
            171.526735,
            -43.495558
          ],
          [
            171.526922,
            -43.495931
          ],
          [
            171.52719,
            -43.49631
          ]
        ]
      }
    },
    {
      "type": "Feature",
      "properties": {
        "name": "Mid Towers 1",
        "kind": "run",
        "difficulty": "advanced",
        "color": "#1f2937",
        "label": false,
        "source": "OpenStreetMap",
        "osmId": 1510522802
      },
      "geometry": {
        "type": "LineString",
        "coordinates": [
          [
            171.533011,
            -43.489743
          ],
          [
            171.532972,
            -43.489978
          ],
          [
            171.532815,
            -43.490239
          ],
          [
            171.532568,
            -43.490593
          ],
          [
            171.532335,
            -43.49089
          ],
          [
            171.531988,
            -43.491273
          ],
          [
            171.531768,
            -43.491525
          ],
          [
            171.531718,
            -43.491745
          ],
          [
            171.531784,
            -43.491941
          ],
          [
            171.53179,
            -43.492115
          ]
        ]
      }
    },
    {
      "type": "Feature",
      "properties": {
        "name": "Mid Towers 2",
        "kind": "run",
        "difficulty": "advanced",
        "color": "#1f2937",
        "label": false,
        "source": "OpenStreetMap",
        "osmId": 1510522803
      },
      "geometry": {
        "type": "LineString",
        "coordinates": [
          [
            171.532815,
            -43.490239
          ],
          [
            171.533149,
            -43.490535
          ],
          [
            171.533386,
            -43.490832
          ],
          [
            171.533743,
            -43.491101
          ],
          [
            171.534117,
            -43.491331
          ],
          [
            171.534401,
            -43.491614
          ],
          [
            171.534476,
            -43.491711
          ]
        ]
      }
    },
    {
      "type": "Feature",
      "properties": {
        "name": "Mid Towers 3",
        "kind": "run",
        "difficulty": "advanced",
        "color": "#1f2937",
        "label": false,
        "source": "OpenStreetMap",
        "osmId": 1510522804
      },
      "geometry": {
        "type": "LineString",
        "coordinates": [
          [
            171.532335,
            -43.49089
          ],
          [
            171.532535,
            -43.491166
          ],
          [
            171.532872,
            -43.491513
          ],
          [
            171.533182,
            -43.49181
          ],
          [
            171.533386,
            -43.492079
          ],
          [
            171.533534,
            -43.492339
          ],
          [
            171.533578,
            -43.492602
          ]
        ]
      }
    }
  ]
}
