{
 "type": "FeatureCollection",
 "features": [
  {
   "type": "Feature",
   "properties": {
    "kind": "road",
    "name": "Mt Hutt Skifield Road",
    "osmId": 26056379
   },
   "geometry": {
    "type": "LineString",
    "coordinates": [
     [
      171.544613,
      -43.505861
     ],
     [
      171.544499,
      -43.506366
     ],
     [
      171.544473,
      -43.506505
     ],
     [
      171.544469,
      -43.506599
     ],
     [
      171.544485,
      -43.506678
     ],
     [
      171.54452,
      -43.506751
     ],
     [
      171.544578,
      -43.506827
     ],
     [
      171.544658,
      -43.5069
     ],
     [
      171.54502,
      -43.507226
     ],
     [
      171.545106,
      -43.507307
     ],
     [
      171.545166,
      -43.507389
     ],
     [
      171.545215,
      -43.507466
     ],
     [
      171.54525,
      -43.50757
     ],
     [
      171.545261,
      -43.507696
     ],
     [
      171.54525,
      -43.508358
     ],
     [
      171.545246,
      -43.508583
     ],
     [
      171.545233,
      -43.508696
     ],
     [
      171.545206,
      -43.508793
     ],
     [
      171.54517,
      -43.50889
     ],
     [
      171.545115,
      -43.509005
     ],
     [
      171.545032,
      -43.509169
     ],
     [
      171.545,
      -43.509252
     ],
     [
      171.54499,
      -43.509321
     ],
     [
      171.544996,
      -43.509379
     ],
     [
      171.545011,
      -43.509423
     ],
     [
      171.545046,
      -43.509474
     ],
     [
      171.545104,
      -43.509519
     ],
     [
      171.545183,
      -43.509557
     ],
     [
      171.545265,
      -43.509586
     ],
     [
      171.545485,
      -43.509638
     ],
     [
      171.545606,
      -43.50967
     ],
     [
      171.545702,
      -43.509705
     ],
     [
      171.545783,
      -43.509743
     ],
     [
      171.54587,
      -43.509793
     ],
     [
      171.545953,
      -43.509856
     ],
     [
      171.54605,
      -43.509942
     ],
     [
      171.546323,
      -43.510242
     ],
     [
      171.54653,
      -43.510478
     ],
     [
      171.546671,
      -43.510593
     ],
     [
      171.546801,
      -43.510687
     ],
     [
      171.546932,
      -43.510769
     ],
     [
      171.547091,
      -43.510841
     ],
     [
      171.547278,
      -43.510916
     ],
     [
      171.547471,
      -43.510974
     ],
     [
      171.547737,
      -43.511035
     ],
     [
      171.548139,
      -43.511103
     ],
     [
      171.548786,
      -43.511186
     ],
     [
      171.549115,
      -43.511245
     ],
     [
      171.549365,
      -43.511303
     ],
     [
      171.549528,
      -43.511345
     ],
     [
      171.549666,
      -43.511384
     ],
     [
      171.549788,
      -43.511432
     ],
     [
      171.549899,
      -43.511482
     ],
     [
      171.54999,
      -43.511535
     ],
     [
      171.550062,
      -43.511595
     ],
     [
      171.550132,
      -43.511669
     ],
     [
      171.550463,
      -43.512097
     ],
     [
      171.55071,
      -43.512479
     ],
     [
      171.550908,
      -43.512838
     ],
     [
      171.550949,
      -43.512937
     ],
     [
      171.550972,
      -43.513006
     ],
     [
      171.550979,
      -43.513072
     ],
     [
      171.550963,
      -43.513156
     ],
     [
      171.550931,
      -43.513226
     ],
     [
      171.550867,
      -43.513321
     ],
     [
      171.550377,
      -43.513985
     ],
     [
      171.550197,
      -43.514246
     ],
     [
      171.550095,
      -43.514435
     ],
     [
      171.550007,
      -43.514639
     ],
     [
      171.549952,
      -43.514797
     ],
     [
      171.549919,
      -43.514909
     ],
     [
      171.549907,
      -43.515016
     ],
     [
      171.549908,
      -43.515116
     ],
     [
      171.549916,
      -43.515229
     ],
     [
      171.549947,
      -43.515372
     ],
     [
      171.550023,
      -43.515629
     ],
     [
      171.550113,
      -43.515849
     ],
     [
      171.550211,
      -43.516034
     ],
     [
      171.550279,
      -43.516141
     ],
     [
      171.550356,
      -43.516241
     ],
     [
      171.550417,
      -43.516315
     ],
     [
      171.550458,
      -43.516376
     ],
     [
      171.550486,
      -43.516433
     ],
     [
      171.550494,
      -43.516477
     ],
     [
      171.550494,
      -43.516518
     ],
     [
      171.550487,
      -43.516575
     ],
     [
      171.550461,
      -43.516638
     ],
     [
      171.55042,
      -43.516708
     ],
     [
      171.550379,
      -43.516755
     ],
     [
      171.550332,
      -43.516797
     ],
     [
      171.550269,
      -43.51684
     ],
     [
      171.550202,
      -43.516874
     ],
     [
      171.550114,
      -43.516908
     ],
     [
      171.550009,
      -43.51694
     ],
     [
      171.549912,
      -43.516955
     ],
     [
      171.549819,
      -43.51697
     ],
     [
      171.549715,
      -43.516975
     ],
     [
      171.549618,
      -43.516971
     ],
     [
      171.549455,
      -43.516958
     ],
     [
      171.549173,
      -43.516938
     ],
     [
      171.548941,
      -43.516938
     ],
     [
      171.54874,
      -43.516945
     ],
     [
      171.54852,
      -43.516954
     ],
     [
      171.548269,
      -43.516981
     ],
     [
      171.548033,
      -43.517025
     ],
     [
      171.547813,
      -43.517076
     ],
     [
      171.547576,
      -43.517143
     ],
     [
      171.547398,
      -43.517193
     ],
     [
      171.547314,
      -43.517223
     ],
     [
      171.547244,
      -43.517254
     ],
     [
      171.547177,
      -43.517282
     ],
     [
      171.547125,
      -43.517314
     ],
     [
      171.547075,
      -43.517346
     ],
     [
      171.54702,
      -43.517389
     ],
     [
      171.546976,
      -43.517426
     ],
     [
      171.546919,
      -43.517481
     ],
     [
      171.546874,
      -43.517521
     ],
     [
      171.54682,
      -43.517563
     ],
     [
      171.546765,
      -43.517597
     ],
     [
      171.546699,
      -43.517626
     ],
     [
      171.546626,
      -43.517649
     ],
     [
      171.546543,
      -43.517661
     ],
     [
      171.546452,
      -43.51767
     ],
     [
      171.546349,
      -43.517674
     ],
     [
      171.546207,
      -43.517665
     ],
     [
      171.546073,
      -43.517652
     ],
     [
      171.545897,
      -43.517633
     ],
     [
      171.545793,
      -43.517619
     ],
     [
      171.545722,
      -43.517612
     ],
     [
      171.545636,
      -43.517607
     ],
     [
      171.545567,
      -43.517608
     ],
     [
      171.545486,
      -43.517617
     ],
     [
      171.545428,
      -43.517624
     ],
     [
      171.545311,
      -43.517642
     ],
     [
      171.545206,
      -43.517665
     ],
     [
      171.545141,
      -43.517689
     ],
     [
      171.545084,
      -43.517716
     ],
     [
      171.545029,
      -43.517748
     ],
     [
      171.544981,
      -43.517785
     ],
     [
      171.544941,
      -43.517829
     ],
     [
      171.544908,
      -43.517885
     ],
     [
      171.544825,
      -43.51807
     ],
     [
      171.544783,
      -43.518152
     ],
     [
      171.544738,
      -43.51823
     ],
     [
      171.544686,
      -43.518314
     ],
     [
      171.544632,
      -43.518396
     ],
     [
      171.544583,
      -43.518455
     ],
     [
      171.544527,
      -43.518518
     ],
     [
      171.544466,
      -43.51858
     ],
     [
      171.544397,
      -43.518639
     ],
     [
      171.544332,
      -43.518687
     ],
     [
      171.544254,
      -43.518739
     ],
     [
      171.54417,
      -43.518789
     ],
     [
      171.544089,
      -43.518837
     ],
     [
      171.544023,
      -43.518886
     ],
     [
      171.543986,
      -43.51892
     ],
     [
      171.543958,
      -43.518954
     ],
     [
      171.543932,
      -43.518992
     ],
     [
      171.543913,
      -43.519042
     ],
     [
      171.543909,
      -43.519079
     ],
     [
      171.543911,
      -43.519115
     ],
     [
      171.543918,
      -43.519145
     ],
     [
      171.543932,
      -43.519171
     ],
     [
      171.543962,
      -43.519197
     ],
     [
      171.544011,
      -43.519228
     ],
     [
      171.544054,
      -43.519246
     ],
     [
      171.54411,
      -43.51926
     ],
     [
      171.544174,
      -43.519272
     ],
     [
      171.544266,
      -43.519282
     ],
     [
      171.544471,
      -43.519304
     ],
     [
      171.544575,
      -43.519322
     ],
     [
      171.544674,
      -43.519343
     ],
     [
      171.544786,
      -43.519378
     ],
     [
      171.544886,
      -43.519413
     ],
     [
      171.544984,
      -43.519457
     ],
     [
      171.545084,
      -43.519511
     ],
     [
      171.545165,
      -43.519562
     ],
     [
      171.545268,
      -43.519638
     ],
     [
      171.545351,
      -43.519699
     ],
     [
      171.545434,
      -43.519752
     ],
     [
      171.545517,
      -43.519789
     ],
     [
      171.545598,
      -43.519817
     ],
     [
      171.545686,
      -43.519838
     ],
     [
      171.545805,
      -43.519857
     ],
     [
      171.545957,
      -43.519881
     ],
     [
      171.546148,
      -43.519895
     ],
     [
      171.546299,
      -43.519909
     ],
     [
      171.546373,
      -43.519911
     ],
     [
      171.546439,
      -43.519908
     ],
     [
      171.546509,
      -43.519899
     ],
     [
      171.546589,
      -43.519885
     ],
     [
      171.546671,
      -43.519863
     ],
     [
      171.547006,
      -43.519776
     ],
     [
      171.547085,
      -43.519759
     ],
     [
      171.547173,
      -43.519752
     ],
     [
      171.547274,
      -43.51975
     ],
     [
      171.547375,
      -43.519757
     ],
     [
      171.547468,
      -43.519769
     ],
     [
      171.547543,
      -43.519789
     ],
     [
      171.547614,
      -43.519817
     ],
     [
      171.547684,
      -43.519856
     ],
     [
      171.547736,
      -43.519892
     ],
     [
      171.547788,
      -43.519936
     ],
     [
      171.547842,
      -43.519993
     ],
     [
      171.547921,
      -43.520087
     ],
     [
      171.547982,
      -43.520151
     ],
     [
      171.548038,
      -43.520204
     ],
     [
      171.548106,
      -43.520255
     ],
     [
      171.548181,
      -43.520306
     ],
     [
      171.548257,
      -43.520356
     ],
     [
      171.548328,
      -43.520392
     ],
     [
      171.548398,
      -43.52042
     ],
     [
      171.548488,
      -43.520448
     ],
     [
      171.548587,
      -43.520474
     ],
     [
      171.548734,
      -43.520507
     ],
     [
      171.548876,
      -43.52053
     ],
     [
      171.549042,
      -43.520554
     ],
     [
      171.549199,
      -43.520573
     ],
     [
      171.549321,
      -43.520586
     ],
     [
      171.549414,
      -43.520603
     ],
     [
      171.549491,
      -43.520622
     ],
     [
      171.549552,
      -43.520643
     ],
     [
      171.549599,
      -43.520662
     ],
     [
      171.54964,
      -43.520689
     ],
     [
      171.549682,
      -43.52072
     ],
     [
      171.549719,
      -43.520758
     ],
     [
      171.549751,
      -43.5208
     ],
     [
      171.549775,
      -43.520854
     ],
     [
      171.549796,
      -43.520921
     ],
     [
      171.549812,
      -43.520992
     ],
     [
      171.549817,
      -43.52107
     ],
     [
      171.549812,
      -43.521147
     ],
     [
      171.549798,
      -43.521212
     ],
     [
      171.549781,
      -43.521276
     ],
     [
      171.549748,
      -43.521354
     ],
     [
      171.549706,
      -43.521428
     ],
     [
      171.549613,
      -43.521569
     ],
     [
      171.549529,
      -43.52169
     ],
     [
      171.549403,
      -43.521855
     ],
     [
      171.549304,
      -43.52197
     ],
     [
      171.548988,
      -43.522304
     ],
     [
      171.548936,
      -43.522367
     ],
     [
      171.548895,
      -43.522427
     ],
     [
      171.548858,
      -43.522487
     ],
     [
      171.548828,
      -43.522545
     ],
     [
      171.548801,
      -43.522603
     ],
     [
      171.548779,
      -43.522665
     ],
     [
      171.548759,
      -43.522742
     ],
     [
      171.54873,
      -43.522881
     ],
     [
      171.54871,
      -43.522947
     ],
     [
      171.548696,
      -43.522986
     ],
     [
      171.548668,
      -43.523042
     ],
     [
      171.548639,
      -43.523097
     ],
     [
      171.548534,
      -43.523272
     ],
     [
      171.548482,
      -43.523347
     ],
     [
      171.548435,
      -43.523421
     ],
     [
      171.548386,
      -43.523511
     ],
     [
      171.548334,
      -43.523621
     ],
     [
      171.548066,
      -43.52418
     ],
     [
      171.548021,
      -43.524276
     ],
     [
      171.547979,
      -43.524351
     ],
     [
      171.547932,
      -43.524432
     ],
     [
      171.547834,
      -43.524597
     ],
     [
      171.547807,
      -43.524651
     ],
     [
      171.547783,
      -43.524709
     ],
     [
      171.547772,
      -43.524747
     ],
     [
      171.547766,
      -43.524786
     ],
     [
      171.547766,
      -43.52482
     ],
     [
      171.547774,
      -43.524857
     ],
     [
      171.547782,
      -43.524883
     ],
     [
      171.547794,
      -43.524917
     ],
     [
      171.547812,
      -43.524951
     ],
     [
      171.547835,
      -43.524981
     ],
     [
      171.547864,
      -43.525011
     ],
     [
      171.547907,
      -43.525044
     ],
     [
      171.547953,
      -43.525073
     ],
     [
      171.548007,
      -43.525099
     ],
     [
      171.548087,
      -43.525123
     ],
     [
      171.548162,
      -43.525137
     ],
     [
      171.548239,
      -43.525145
     ],
     [
      171.548308,
      -43.525143
     ],
     [
      171.548384,
      -43.525135
     ],
     [
      171.54858,
      -43.525108
     ],
     [
      171.548699,
      -43.525095
     ],
     [
      171.548802,
      -43.525091
     ],
     [
      171.548885,
      -43.525092
     ],
     [
      171.548978,
      -43.5251
     ],
     [
      171.549065,
      -43.525113
     ],
     [
      171.549221,
      -43.52515
     ],
     [
      171.549328,
      -43.525175
     ],
     [
      171.549429,
      -43.525195
     ],
     [
      171.549551,
      -43.525215
     ],
     [
      171.549669,
      -43.525231
     ],
     [
      171.54978,
      -43.525241
     ],
     [
      171.549906,
      -43.525249
     ],
     [
      171.550105,
      -43.525248
     ],
     [
      171.5503,
      -43.52525
     ],
     [
      171.550428,
      -43.525244
     ],
     [
      171.55054,
      -43.525236
     ],
     [
      171.550625,
      -43.525227
     ],
     [
      171.55072,
      -43.525214
     ],
     [
      171.550821,
      -43.525198
     ],
     [
      171.550898,
      -43.525177
     ],
     [
      171.550966,
      -43.525151
     ],
     [
      171.55104,
      -43.525116
     ],
     [
      171.55123,
      -43.524991
     ],
     [
      171.551281,
      -43.524958
     ],
     [
      171.551335,
      -43.524932
     ],
     [
      171.551388,
      -43.524912
     ],
     [
      171.551454,
      -43.524893
     ],
     [
      171.551512,
      -43.524885
     ],
     [
      171.551576,
      -43.524886
     ],
     [
      171.551639,
      -43.524892
     ],
     [
      171.551701,
      -43.524909
     ],
     [
      171.551757,
      -43.524927
     ],
     [
      171.551814,
      -43.524951
     ],
     [
      171.552048,
      -43.525084
     ],
     [
      171.552109,
      -43.525124
     ],
     [
      171.552152,
      -43.525162
     ],
     [
      171.552181,
      -43.525197
     ],
     [
      171.552207,
      -43.525239
     ],
     [
      171.552221,
      -43.525284
     ],
     [
      171.552226,
      -43.52532
     ],
     [
      171.552225,
      -43.525359
     ],
     [
      171.552215,
      -43.5254
     ],
     [
      171.552202,
      -43.525437
     ],
     [
      171.552185,
      -43.525475
     ],
     [
      171.552077,
      -43.525676
     ],
     [
      171.552031,
      -43.525755
     ],
     [
      171.551992,
      -43.525836
     ],
     [
      171.55194,
      -43.525942
     ],
     [
      171.551904,
      -43.526018
     ],
     [
      171.551862,
      -43.526095
     ],
     [
      171.551799,
      -43.526202
     ],
     [
      171.551763,
      -43.526273
     ],
     [
      171.551725,
      -43.526354
     ],
     [
      171.55169,
      -43.526432
     ],
     [
      171.551655,
      -43.52652
     ],
     [
      171.551603,
      -43.52667
     ],
     [
      171.551543,
      -43.526844
     ],
     [
      171.551491,
      -43.526991
     ],
     [
      171.551455,
      -43.527106
     ],
     [
      171.551426,
      -43.527209
     ],
     [
      171.551353,
      -43.527473
     ],
     [
      171.551259,
      -43.527846
     ],
     [
      171.551237,
      -43.527941
     ],
     [
      171.551223,
      -43.528011
     ],
     [
      171.551216,
      -43.528049
     ],
     [
      171.551209,
      -43.528095
     ],
     [
      171.551208,
      -43.528137
     ],
     [
      171.55121,
      -43.528179
     ],
     [
      171.551217,
      -43.52822
     ],
     [
      171.55123,
      -43.528274
     ],
     [
      171.551247,
      -43.528326
     ],
     [
      171.551273,
      -43.528387
     ],
     [
      171.551421,
      -43.528687
     ],
     [
      171.551444,
      -43.52875
     ],
     [
      171.551459,
      -43.528806
     ],
     [
      171.55147,
      -43.528854
     ],
     [
      171.551472,
      -43.528898
     ],
     [
      171.551468,
      -43.528932
     ],
     [
      171.551461,
      -43.52897
     ],
     [
      171.551451,
      -43.529006
     ],
     [
      171.551434,
      -43.529039
     ],
     [
      171.551414,
      -43.52907
     ],
     [
      171.551387,
      -43.529103
     ],
     [
      171.551348,
      -43.529136
     ],
     [
      171.551312,
      -43.529166
     ],
     [
      171.551277,
      -43.52919
     ],
     [
      171.551234,
      -43.529214
     ],
     [
      171.551169,
      -43.529241
     ],
     [
      171.551022,
      -43.529296
     ],
     [
      171.550883,
      -43.529352
     ],
     [
      171.550817,
      -43.529383
     ],
     [
      171.550763,
      -43.529416
     ],
     [
      171.550716,
      -43.529453
     ],
     [
      171.550691,
      -43.529477
     ],
     [
      171.550672,
      -43.5295
     ],
     [
      171.550661,
      -43.529518
     ],
     [
      171.550651,
      -43.529541
     ],
     [
      171.550644,
      -43.529563
     ],
     [
      171.550642,
      -43.529586
     ],
     [
      171.550644,
      -43.529609
     ],
     [
      171.550647,
      -43.529632
     ],
     [
      171.550654,
      -43.529655
     ],
     [
      171.550662,
      -43.529672
     ],
     [
      171.550677,
      -43.529696
     ],
     [
      171.550692,
      -43.529716
     ],
     [
      171.55071,
      -43.529734
     ],
     [
      171.550735,
      -43.529753
     ],
     [
      171.550763,
      -43.529773
     ],
     [
      171.550812,
      -43.5298
     ],
     [
      171.550928,
      -43.529863
     ],
     [
      171.551048,
      -43.529916
     ],
     [
      171.551139,
      -43.529959
     ],
     [
      171.551202,
      -43.529992
     ],
     [
      171.551243,
      -43.530016
     ],
     [
      171.55128,
      -43.530042
     ],
     [
      171.551315,
      -43.53007
     ],
     [
      171.55136,
      -43.53011
     ],
     [
      171.551417,
      -43.530167
     ],
     [
      171.551481,
      -43.530245
     ],
     [
      171.551672,
      -43.530504
     ],
     [
      171.551881,
      -43.530768
     ],
     [
      171.552078,
      -43.531003
     ],
     [
      171.552332,
      -43.531257
     ],
     [
      171.552913,
      -43.531792
     ],
     [
      171.5531,
      -43.531961
     ],
     [
      171.553172,
      -43.532033
     ],
     [
      171.553237,
      -43.532106
     ],
     [
      171.553288,
      -43.532169
     ],
     [
      171.553325,
      -43.532228
     ],
     [
      171.553352,
      -43.532289
     ],
     [
      171.553381,
      -43.532363
     ],
     [
      171.553397,
      -43.532433
     ],
     [
      171.553408,
      -43.532507
     ],
     [
      171.553409,
      -43.532589
     ],
     [
      171.553402,
      -43.532668
     ],
     [
      171.553385,
      -43.532743
     ],
     [
      171.553352,
      -43.532845
     ],
     [
      171.553312,
      -43.532944
     ],
     [
      171.552928,
      -43.533715
     ],
     [
      171.552898,
      -43.533768
     ],
     [
      171.552864,
      -43.533821
     ],
     [
      171.552826,
      -43.533868
     ],
     [
      171.552773,
      -43.53392
     ],
     [
      171.552723,
      -43.533961
     ],
     [
      171.552679,
      -43.533995
     ],
     [
      171.552632,
      -43.534024
     ],
     [
      171.552576,
      -43.534048
     ],
     [
      171.552513,
      -43.534072
     ],
     [
      171.552463,
      -43.534091
     ],
     [
      171.552389,
      -43.534107
     ],
     [
      171.552319,
      -43.534118
     ],
     [
      171.552236,
      -43.534121
     ],
     [
      171.552157,
      -43.534116
     ],
     [
      171.552074,
      -43.534104
     ],
     [
      171.551999,
      -43.534086
     ],
     [
      171.55191,
      -43.534063
     ],
     [
      171.55181,
      -43.534034
     ],
     [
      171.551579,
      -43.533958
     ],
     [
      171.551368,
      -43.533883
     ],
     [
      171.551174,
      -43.533812
     ],
     [
      171.550963,
      -43.533736
     ],
     [
      171.550738,
      -43.533664
     ],
     [
      171.550596,
      -43.533618
     ],
     [
      171.550481,
      -43.533586
     ],
     [
      171.550391,
      -43.533566
     ],
     [
      171.550321,
      -43.533556
     ],
     [
      171.550256,
      -43.533549
     ],
     [
      171.550191,
      -43.533549
     ],
     [
      171.550119,
      -43.53355
     ],
     [
      171.550051,
      -43.533556
     ],
     [
      171.549995,
      -43.533565
     ],
     [
      171.549926,
      -43.533575
     ],
     [
      171.549695,
      -43.533633
     ],
     [
      171.549606,
      -43.533652
     ],
     [
      171.549542,
      -43.53366
     ],
     [
      171.549484,
      -43.533663
     ],
     [
      171.549428,
      -43.533657
     ],
     [
      171.549374,
      -43.533646
     ],
     [
      171.549321,
      -43.533633
     ],
     [
      171.549262,
      -43.533617
     ],
     [
      171.549198,
      -43.533594
     ],
     [
      171.549136,
      -43.533567
     ],
     [
      171.54903,
      -43.533512
     ],
     [
      171.54876,
      -43.533345
     ],
     [
      171.5487,
      -43.533309
     ],
     [
      171.548651,
      -43.533286
     ],
     [
      171.548599,
      -43.533266
     ],
     [
      171.548543,
      -43.533253
     ],
     [
      171.548477,
      -43.533249
     ],
     [
      171.548411,
      -43.533252
     ],
     [
      171.548354,
      -43.53326
     ],
     [
      171.5483,
      -43.533274
     ],
     [
      171.548253,
      -43.533292
     ],
     [
      171.548212,
      -43.533315
     ],
     [
      171.548164,
      -43.533351
     ],
     [
      171.548002,
      -43.533481
     ],
     [
      171.547968,
      -43.533507
     ],
     [
      171.547915,
      -43.533538
     ],
     [
      171.547872,
      -43.533556
     ],
     [
      171.547825,
      -43.533575
     ],
     [
      171.547782,
      -43.533585
     ],
     [
      171.547736,
      -43.533592
     ],
     [
      171.547685,
      -43.533597
     ],
     [
      171.547639,
      -43.5336
     ],
     [
      171.547585,
      -43.5336
     ],
     [
      171.547514,
      -43.533597
     ],
     [
      171.547431,
      -43.533594
     ],
     [
      171.547355,
      -43.533593
     ],
     [
      171.547284,
      -43.533596
     ],
     [
      171.547221,
      -43.533602
     ],
     [
      171.546757,
      -43.533646
     ],
     [
      171.546676,
      -43.53365
     ],
     [
      171.546599,
      -43.533648
     ],
     [
      171.546518,
      -43.533641
     ],
     [
      171.546428,
      -43.533627
     ],
     [
      171.54633,
      -43.53361
     ],
     [
      171.546221,
      -43.533588
     ],
     [
      171.545526,
      -43.533407
     ],
     [
      171.545451,
      -43.533384
     ],
     [
      171.545388,
      -43.533361
     ],
     [
      171.545328,
      -43.533334
     ],
     [
      171.54527,
      -43.533303
     ],
     [
      171.545207,
      -43.533265
     ],
     [
      171.545155,
      -43.533228
     ],
     [
      171.545107,
      -43.533188
     ],
     [
      171.545044,
      -43.533132
     ],
     [
      171.54498,
      -43.533076
     ],
     [
      171.544742,
      -43.532849
     ],
     [
      171.544691,
      -43.532808
     ],
     [
      171.544634,
      -43.532767
     ],
     [
      171.544572,
      -43.53273
     ],
     [
      171.544525,
      -43.53271
     ],
     [
      171.544477,
      -43.53269
     ],
     [
      171.544423,
      -43.532672
     ],
     [
      171.544373,
      -43.532659
     ],
     [
      171.544326,
      -43.532649
     ],
     [
      171.544285,
      -43.532644
     ],
     [
      171.544242,
      -43.532641
     ],
     [
      171.544184,
      -43.532639
     ],
     [
      171.544075,
      -43.532639
     ],
     [
      171.544006,
      -43.532638
     ],
     [
      171.543926,
      -43.532633
     ],
     [
      171.54386,
      -43.532628
     ],
     [
      171.543795,
      -43.532616
     ],
     [
      171.543736,
      -43.532603
     ],
     [
      171.543673,
      -43.532582
     ],
     [
      171.543621,
      -43.532567
     ],
     [
      171.543561,
      -43.532543
     ],
     [
      171.543347,
      -43.532442
     ],
     [
      171.543225,
      -43.532385
     ],
     [
      171.543191,
      -43.532375
     ],
     [
      171.543153,
      -43.532367
     ],
     [
      171.543109,
      -43.532364
     ],
     [
      171.543071,
      -43.532365
     ],
     [
      171.543033,
      -43.532369
     ],
     [
      171.542997,
      -43.532376
     ],
     [
      171.54296,
      -43.532389
     ],
     [
      171.542923,
      -43.532408
     ],
     [
      171.542844,
      -43.532449
     ],
     [
      171.542791,
      -43.532471
     ],
     [
      171.542735,
      -43.532484
     ],
     [
      171.542679,
      -43.532495
     ],
     [
      171.542625,
      -43.532501
     ],
     [
      171.542556,
      -43.532503
     ],
     [
      171.542499,
      -43.532497
     ],
     [
      171.542432,
      -43.532483
     ],
     [
      171.542379,
      -43.53247
     ],
     [
      171.542328,
      -43.532455
     ],
     [
      171.542242,
      -43.532425
     ],
     [
      171.542146,
      -43.532387
     ],
     [
      171.54208,
      -43.532364
     ],
     [
      171.542011,
      -43.532345
     ],
     [
      171.541922,
      -43.532325
     ],
     [
      171.541819,
      -43.532307
     ],
     [
      171.541685,
      -43.532281
     ],
     [
      171.541557,
      -43.532255
     ],
     [
      171.541447,
      -43.532226
     ],
     [
      171.541374,
      -43.532205
     ],
     [
      171.541312,
      -43.532184
     ],
     [
      171.541261,
      -43.532166
     ],
     [
      171.541213,
      -43.532143
     ],
     [
      171.541164,
      -43.532117
     ],
     [
      171.541125,
      -43.53209
     ],
     [
      171.54108,
      -43.532055
     ],
     [
      171.540885,
      -43.531899
     ],
     [
      171.540837,
      -43.531865
     ],
     [
      171.540784,
      -43.531836
     ],
     [
      171.540727,
      -43.531814
     ],
     [
      171.540681,
      -43.531799
     ],
     [
      171.540629,
      -43.531789
     ],
     [
      171.540524,
      -43.531777
     ],
     [
      171.540392,
      -43.531768
     ],
     [
      171.540315,
      -43.531755
     ],
     [
      171.54026,
      -43.531742
     ],
     [
      171.540197,
      -43.531722
     ],
     [
      171.540135,
      -43.531703
     ],
     [
      171.540069,
      -43.531676
     ],
     [
      171.540004,
      -43.531648
     ],
     [
      171.539953,
      -43.531631
     ],
     [
      171.539907,
      -43.53162
     ],
     [
      171.539863,
      -43.531619
     ],
     [
      171.539811,
      -43.531622
     ],
     [
      171.539772,
      -43.53163
     ],
     [
      171.539737,
      -43.531644
     ],
     [
      171.539706,
      -43.531661
     ],
     [
      171.539677,
      -43.531684
     ],
     [
      171.539659,
      -43.531708
     ],
     [
      171.539636,
      -43.531742
     ],
     [
      171.539613,
      -43.531791
     ],
     [
      171.539591,
      -43.531848
     ],
     [
      171.53957,
      -43.531914
     ],
     [
      171.539551,
      -43.531967
     ],
     [
      171.539533,
      -43.532018
     ],
     [
      171.539501,
      -43.532086
     ],
     [
      171.539269,
      -43.532463
     ],
     [
      171.539246,
      -43.532508
     ],
     [
      171.539231,
      -43.532556
     ],
     [
      171.539229,
      -43.532597
     ],
     [
      171.539237,
      -43.532635
     ],
     [
      171.53925,
      -43.532669
     ],
     [
      171.53927,
      -43.532706
     ],
     [
      171.539302,
      -43.532747
     ],
     [
      171.539328,
      -43.53278
     ],
     [
      171.539338,
      -43.532811
     ],
     [
      171.539341,
      -43.532839
     ],
     [
      171.539331,
      -43.532866
     ],
     [
      171.539319,
      -43.532886
     ],
     [
      171.539298,
      -43.532905
     ],
     [
      171.539276,
      -43.532916
     ],
     [
      171.539248,
      -43.532924
     ],
     [
      171.539213,
      -43.532929
     ],
     [
      171.539177,
      -43.532929
     ],
     [
      171.539137,
      -43.532924
     ],
     [
      171.539086,
      -43.532912
     ],
     [
      171.539044,
      -43.532897
     ],
     [
      171.538582,
      -43.532662
     ],
     [
      171.538486,
      -43.532621
     ],
     [
      171.538395,
      -43.53259
     ],
     [
      171.538305,
      -43.53256
     ],
     [
      171.538199,
      -43.532537
     ],
     [
      171.538109,
      -43.532525
     ],
     [
      171.538019,
      -43.53252
     ],
     [
      171.537933,
      -43.532522
     ],
     [
      171.537837,
      -43.53253
     ],
     [
      171.537711,
      -43.532553
     ],
     [
      171.537579,
      -43.532586
     ],
     [
      171.537429,
      -43.532631
     ],
     [
      171.537262,
      -43.532685
     ],
     [
      171.537113,
      -43.532743
     ],
     [
      171.537036,
      -43.532784
     ],
     [
      171.53697,
      -43.532824
     ],
     [
      171.53691,
      -43.53287
     ],
     [
      171.536871,
      -43.532913
     ],
     [
      171.536841,
      -43.532953
     ],
     [
      171.536811,
      -43.533002
     ],
     [
      171.536789,
      -43.53305
     ],
     [
      171.536776,
      -43.533099
     ],
     [
      171.536772,
      -43.533147
     ],
     [
      171.536772,
      -43.533189
     ],
     [
      171.536781,
      -43.533237
     ],
     [
      171.536793,
      -43.533283
     ],
     [
      171.536816,
      -43.533332
     ],
     [
      171.53685,
      -43.533389
     ],
     [
      171.536948,
      -43.533532
     ],
     [
      171.536995,
      -43.533603
     ],
     [
      171.537025,
      -43.533661
     ],
     [
      171.53705,
      -43.533713
     ],
     [
      171.537065,
      -43.533758
     ],
     [
      171.537078,
      -43.533809
     ],
     [
      171.537082,
      -43.533865
     ],
     [
      171.537083,
      -43.53391
     ],
     [
      171.537072,
      -43.533965
     ],
     [
      171.53705,
      -43.534013
     ],
     [
      171.537011,
      -43.534062
     ],
     [
      171.53695,
      -43.534112
     ],
     [
      171.53688,
      -43.53416
     ],
     [
      171.536707,
      -43.53428
     ],
     [
      171.536677,
      -43.534304
     ],
     [
      171.536651,
      -43.53433
     ],
     [
      171.536621,
      -43.534364
     ],
     [
      171.5366,
      -43.534397
     ],
     [
      171.536587,
      -43.534427
     ],
     [
      171.536576,
      -43.534456
     ],
     [
      171.53657,
      -43.534483
     ],
     [
      171.536569,
      -43.534513
     ],
     [
      171.536571,
      -43.534545
     ],
     [
      171.536581,
      -43.534577
     ],
     [
      171.536591,
      -43.534602
     ],
     [
      171.536607,
      -43.534628
     ],
     [
      171.536626,
      -43.534658
     ],
     [
      171.53665,
      -43.534681
     ],
     [
      171.536684,
      -43.534706
     ],
     [
      171.536721,
      -43.534724
     ],
     [
      171.536768,
      -43.534742
     ],
     [
      171.536843,
      -43.534767
     ],
     [
      171.537139,
      -43.534843
     ],
     [
      171.53723,
      -43.534865
     ],
     [
      171.537284,
      -43.53488
     ],
     [
      171.53734,
      -43.534901
     ],
     [
      171.537397,
      -43.534928
     ],
     [
      171.537445,
      -43.534954
     ],
     [
      171.537496,
      -43.534987
     ],
     [
      171.537571,
      -43.53504
     ],
     [
      171.537655,
      -43.535093
     ],
     [
      171.537806,
      -43.535179
     ],
     [
      171.537937,
      -43.535257
     ],
     [
      171.538032,
      -43.535313
     ],
     [
      171.538109,
      -43.535357
     ],
     [
      171.538185,
      -43.535393
     ],
     [
      171.538245,
      -43.53542
     ],
     [
      171.538336,
      -43.535454
     ],
     [
      171.538383,
      -43.535471
     ],
     [
      171.538432,
      -43.535492
     ],
     [
      171.538461,
      -43.535508
     ],
     [
      171.538494,
      -43.535529
     ],
     [
      171.53852,
      -43.535551
     ],
     [
      171.538545,
      -43.535575
     ],
     [
      171.538563,
      -43.535596
     ],
     [
      171.538577,
      -43.535617
     ],
     [
      171.538587,
      -43.535642
     ],
     [
      171.53859,
      -43.535663
     ],
     [
      171.538588,
      -43.535685
     ],
     [
      171.53858,
      -43.535707
     ],
     [
      171.538569,
      -43.53573
     ],
     [
      171.538552,
      -43.535757
     ],
     [
      171.538528,
      -43.535788
     ],
     [
      171.538493,
      -43.535819
     ],
     [
      171.53845,
      -43.535858
     ],
     [
      171.538343,
      -43.535946
     ],
     [
      171.538295,
      -43.535994
     ],
     [
      171.538257,
      -43.536038
     ],
     [
      171.538225,
      -43.536081
     ],
     [
      171.538199,
      -43.536127
     ],
     [
      171.538175,
      -43.536175
     ],
     [
      171.538159,
      -43.536221
     ],
     [
      171.538148,
      -43.536267
     ],
     [
      171.538141,
      -43.536314
     ],
     [
      171.538137,
      -43.536365
     ],
     [
      171.538125,
      -43.536537
     ],
     [
      171.538122,
      -43.536648
     ],
     [
      171.538126,
      -43.536733
     ],
     [
      171.538138,
      -43.536799
     ],
     [
      171.53815,
      -43.536852
     ],
     [
      171.538171,
      -43.53691
     ],
     [
      171.538197,
      -43.536965
     ],
     [
      171.538231,
      -43.537029
     ],
     [
      171.53828,
      -43.537114
     ],
     [
      171.538318,
      -43.537174
     ],
     [
      171.538343,
      -43.537221
     ],
     [
      171.538354,
      -43.537253
     ],
     [
      171.538358,
      -43.537281
     ],
     [
      171.538353,
      -43.537315
     ],
     [
      171.538347,
      -43.537337
     ],
     [
      171.538331,
      -43.537368
     ],
     [
      171.53831,
      -43.537394
     ],
     [
      171.538281,
      -43.53742
     ],
     [
      171.538234,
      -43.537453
     ],
     [
      171.538169,
      -43.5375
     ],
     [
      171.538102,
      -43.537536
     ],
     [
      171.538048,
      -43.53757
     ],
     [
      171.538008,
      -43.537603
     ],
     [
      171.537979,
      -43.537636
     ],
     [
      171.537955,
      -43.53767
     ],
     [
      171.537926,
      -43.537714
     ],
     [
      171.537907,
      -43.537752
     ],
     [
      171.537889,
      -43.537796
     ],
     [
      171.537874,
      -43.53784
     ],
     [
      171.537842,
      -43.537958
     ],
     [
      171.537831,
      -43.537992
     ],
     [
      171.537816,
      -43.538022
     ],
     [
      171.537796,
      -43.538048
     ],
     [
      171.537774,
      -43.538067
     ],
     [
      171.537745,
      -43.538088
     ],
     [
      171.537716,
      -43.538108
     ],
     [
      171.537683,
      -43.538123
     ],
     [
      171.537645,
      -43.538137
     ],
     [
      171.537601,
      -43.538151
     ],
     [
      171.537207,
      -43.538263
     ],
     [
      171.537124,
      -43.538284
     ],
     [
      171.53704,
      -43.538302
     ],
     [
      171.536948,
      -43.538315
     ],
     [
      171.536831,
      -43.538326
     ],
     [
      171.536656,
      -43.538338
     ],
     [
      171.536563,
      -43.538346
     ],
     [
      171.536496,
      -43.538355
     ],
     [
      171.536428,
      -43.538373
     ],
     [
      171.536372,
      -43.538393
     ],
     [
      171.536326,
      -43.538418
     ],
     [
      171.536291,
      -43.538444
     ],
     [
      171.536256,
      -43.538474
     ],
     [
      171.536231,
      -43.538505
     ],
     [
      171.536207,
      -43.538539
     ],
     [
      171.536191,
      -43.538571
     ],
     [
      171.536178,
      -43.538609
     ],
     [
      171.536167,
      -43.538652
     ],
     [
      171.536151,
      -43.538746
     ],
     [
      171.536141,
      -43.538818
     ],
     [
      171.536137,
      -43.538889
     ],
     [
      171.536138,
      -43.538941
     ],
     [
      171.536145,
      -43.538985
     ],
     [
      171.536156,
      -43.539022
     ],
     [
      171.536168,
      -43.539052
     ],
     [
      171.536179,
      -43.539079
     ],
     [
      171.536196,
      -43.539102
     ],
     [
      171.536212,
      -43.539123
     ],
     [
      171.536238,
      -43.539149
     ],
     [
      171.536276,
      -43.539182
     ],
     [
      171.536322,
      -43.539217
     ],
     [
      171.5364,
      -43.539265
     ],
     [
      171.536685,
      -43.539412
     ],
     [
      171.536737,
      -43.539443
     ],
     [
      171.536786,
      -43.539478
     ],
     [
      171.536845,
      -43.53952
     ],
     [
      171.536903,
      -43.539556
     ],
     [
      171.536954,
      -43.539585
     ],
     [
      171.537006,
      -43.539611
     ],
     [
      171.537059,
      -43.539633
     ],
     [
      171.537116,
      -43.539652
     ],
     [
      171.537176,
      -43.539666
     ],
     [
      171.537231,
      -43.539679
     ],
     [
      171.53728,
      -43.539695
     ],
     [
      171.537327,
      -43.539714
     ],
     [
      171.53737,
      -43.539739
     ],
     [
      171.537406,
      -43.539766
     ],
     [
      171.537454,
      -43.539811
     ],
     [
      171.537518,
      -43.539882
     ],
     [
      171.537577,
      -43.539965
     ],
     [
      171.537633,
      -43.540047
     ],
     [
      171.537661,
      -43.540095
     ],
     [
      171.537677,
      -43.540136
     ],
     [
      171.537688,
      -43.540175
     ],
     [
      171.537693,
      -43.540216
     ],
     [
      171.537691,
      -43.540256
     ],
     [
      171.537684,
      -43.5403
     ],
     [
      171.537668,
      -43.540347
     ],
     [
      171.537646,
      -43.540407
     ],
     [
      171.537609,
      -43.540498
     ],
     [
      171.537578,
      -43.540587
     ],
     [
      171.537558,
      -43.540662
     ],
     [
      171.537529,
      -43.540786
     ],
     [
      171.537508,
      -43.54089
     ],
     [
      171.537501,
      -43.540939
     ],
     [
      171.5375,
      -43.54098
     ],
     [
      171.537501,
      -43.54102
     ],
     [
      171.537507,
      -43.541062
     ],
     [
      171.537517,
      -43.541097
     ],
     [
      171.537531,
      -43.541131
     ],
     [
      171.537551,
      -43.541169
     ],
     [
      171.537577,
      -43.54121
     ],
     [
      171.53761,
      -43.54125
     ],
     [
      171.537645,
      -43.541288
     ],
     [
      171.537685,
      -43.541325
     ],
     [
      171.537734,
      -43.541364
     ],
     [
      171.537779,
      -43.541402
     ],
     [
      171.537844,
      -43.541447
     ],
     [
      171.537921,
      -43.541496
     ],
     [
      171.537994,
      -43.541535
     ],
     [
      171.538082,
      -43.541573
     ],
     [
      171.538133,
      -43.541591
     ],
     [
      171.538191,
      -43.541606
     ],
     [
      171.538249,
      -43.541617
     ],
     [
      171.538314,
      -43.541624
     ],
     [
      171.538371,
      -43.541625
     ],
     [
      171.538434,
      -43.541625
     ],
     [
      171.538476,
      -43.541625
     ],
     [
      171.53852,
      -43.541629
     ],
     [
      171.538572,
      -43.541639
     ],
     [
      171.538636,
      -43.541658
     ],
     [
      171.538716,
      -43.541692
     ],
     [
      171.538799,
      -43.541728
     ],
     [
      171.538955,
      -43.541811
     ],
     [
      171.539023,
      -43.541851
     ],
     [
      171.539063,
      -43.541882
     ],
     [
      171.539095,
      -43.54191
     ],
     [
      171.539123,
      -43.541945
     ],
     [
      171.539146,
      -43.541981
     ],
     [
      171.539162,
      -43.542024
     ],
     [
      171.539171,
      -43.542077
     ],
     [
      171.539171,
      -43.542133
     ],
     [
      171.539159,
      -43.542199
     ],
     [
      171.539138,
      -43.54231
     ],
     [
      171.539127,
      -43.542407
     ],
     [
      171.539127,
      -43.542474
     ],
     [
      171.539136,
      -43.542537
     ],
     [
      171.539156,
      -43.542589
     ],
     [
      171.539179,
      -43.542641
     ],
     [
      171.539206,
      -43.542696
     ],
     [
      171.539249,
      -43.542772
     ],
     [
      171.539316,
      -43.542859
     ],
     [
      171.539421,
      -43.542977
     ],
     [
      171.539485,
      -43.543033
     ],
     [
      171.539537,
      -43.543075
     ],
     [
      171.539593,
      -43.54311
     ],
     [
      171.539668,
      -43.543149
     ],
     [
      171.539737,
      -43.543175
     ],
     [
      171.539822,
      -43.543201
     ],
     [
      171.539943,
      -43.543233
     ],
     [
      171.540006,
      -43.543248
     ],
     [
      171.540062,
      -43.543268
     ],
     [
      171.540129,
      -43.543298
     ],
     [
      171.540187,
      -43.54333
     ],
     [
      171.540247,
      -43.543369
     ],
     [
      171.540348,
      -43.54344
     ],
     [
      171.540427,
      -43.543487
     ],
     [
      171.540513,
      -43.543525
     ],
     [
      171.540567,
      -43.543546
     ],
     [
      171.540642,
      -43.543567
     ],
     [
      171.540708,
      -43.543582
     ],
     [
      171.54077,
      -43.543595
     ],
     [
      171.540814,
      -43.5436
     ],
     [
      171.540863,
      -43.543598
     ],
     [
      171.540916,
      -43.543591
     ],
     [
      171.540972,
      -43.543581
     ],
     [
      171.541046,
      -43.543571
     ],
     [
      171.541113,
      -43.543559
     ],
     [
      171.541301,
      -43.543507
     ],
     [
      171.541479,
      -43.543456
     ],
     [
      171.541612,
      -43.543414
     ],
     [
      171.541721,
      -43.543374
     ],
     [
      171.541855,
      -43.54332
     ],
     [
      171.541929,
      -43.543292
     ],
     [
      171.54199,
      -43.54327
     ],
     [
      171.542046,
      -43.543256
     ],
     [
      171.542097,
      -43.543246
     ],
     [
      171.542148,
      -43.543242
     ],
     [
      171.542202,
      -43.543243
     ],
     [
      171.542253,
      -43.543248
     ],
     [
      171.542297,
      -43.543258
     ],
     [
      171.542354,
      -43.543275
     ],
     [
      171.542406,
      -43.543298
     ],
     [
      171.542462,
      -43.543328
     ],
     [
      171.542508,
      -43.543361
     ],
     [
      171.542571,
      -43.543404
     ],
     [
      171.542648,
      -43.54346
     ],
     [
      171.542719,
      -43.543504
     ],
     [
      171.542794,
      -43.543543
     ],
     [
      171.542881,
      -43.543585
     ],
     [
      171.543005,
      -43.543634
     ],
     [
      171.543131,
      -43.54368
     ],
     [
      171.543272,
      -43.543722
     ],
     [
      171.543445,
      -43.543769
     ],
     [
      171.543664,
      -43.543827
     ],
     [
      171.543915,
      -43.543888
     ],
     [
      171.544186,
      -43.543948
     ],
     [
      171.544453,
      -43.544003
     ],
     [
      171.544715,
      -43.544051
     ],
     [
      171.544992,
      -43.544102
     ],
     [
      171.545161,
      -43.544128
     ],
     [
      171.545331,
      -43.544147
     ],
     [
      171.545457,
      -43.544163
     ],
     [
      171.545587,
      -43.544182
     ],
     [
      171.545666,
      -43.544195
     ],
     [
      171.545738,
      -43.544213
     ],
     [
      171.545788,
      -43.544231
     ],
     [
      171.545841,
      -43.544252
     ],
     [
      171.545884,
      -43.544276
     ],
     [
      171.545918,
      -43.544304
     ],
     [
      171.545945,
      -43.544326
     ],
     [
      171.545973,
      -43.544357
     ],
     [
      171.545994,
      -43.544393
     ],
     [
      171.54601,
      -43.544436
     ],
     [
      171.546022,
      -43.544495
     ],
     [
      171.54604,
      -43.544542
     ],
     [
      171.546052,
      -43.544583
     ],
     [
      171.546073,
      -43.54463
     ],
     [
      171.546097,
      -43.544675
     ],
     [
      171.546127,
      -43.544715
     ],
     [
      171.546166,
      -43.544758
     ],
     [
      171.546225,
      -43.544806
     ],
     [
      171.546315,
      -43.544876
     ],
     [
      171.54637,
      -43.544921
     ],
     [
      171.546417,
      -43.544967
     ],
     [
      171.546448,
      -43.545005
     ],
     [
      171.546478,
      -43.545056
     ],
     [
      171.546499,
      -43.545114
     ],
     [
      171.546581,
      -43.5453
     ],
     [
      171.546629,
      -43.545391
     ],
     [
      171.546667,
      -43.545446
     ],
     [
      171.546703,
      -43.545492
     ],
     [
      171.546753,
      -43.545541
     ],
     [
      171.546803,
      -43.545588
     ],
     [
      171.546852,
      -43.545631
     ],
     [
      171.546936,
      -43.54569
     ],
     [
      171.54703,
      -43.545755
     ],
     [
      171.54716,
      -43.545834
     ],
     [
      171.547347,
      -43.545944
     ],
     [
      171.547442,
      -43.546003
     ],
     [
      171.547501,
      -43.546041
     ],
     [
      171.547553,
      -43.546076
     ],
     [
      171.547596,
      -43.54611
     ],
     [
      171.547639,
      -43.546145
     ],
     [
      171.547679,
      -43.546184
     ],
     [
      171.547711,
      -43.546219
     ],
     [
      171.547754,
      -43.546269
     ],
     [
      171.547785,
      -43.546317
     ],
     [
      171.547817,
      -43.546376
     ],
     [
      171.547851,
      -43.54646
     ],
     [
      171.547912,
      -43.546612
     ],
     [
      171.547974,
      -43.546742
     ],
     [
      171.548012,
      -43.546819
     ],
     [
      171.548048,
      -43.546887
     ],
     [
      171.548099,
      -43.546966
     ],
     [
      171.548155,
      -43.547052
     ],
     [
      171.548211,
      -43.547128
     ],
     [
      171.54827,
      -43.547207
     ],
     [
      171.548329,
      -43.547283
     ],
     [
      171.548596,
      -43.547585
     ],
     [
      171.548815,
      -43.547849
     ],
     [
      171.548886,
      -43.547928
     ],
     [
      171.548955,
      -43.547992
     ],
     [
      171.549032,
      -43.548055
     ],
     [
      171.549166,
      -43.548135
     ],
     [
      171.549498,
      -43.548337
     ],
     [
      171.549591,
      -43.548401
     ],
     [
      171.549732,
      -43.548493
     ],
     [
      171.549845,
      -43.548561
     ],
     [
      171.549924,
      -43.548605
     ],
     [
      171.55,
      -43.548639
     ],
     [
      171.550096,
      -43.548677
     ],
     [
      171.550235,
      -43.548725
     ],
     [
      171.550396,
      -43.548771
     ],
     [
      171.550613,
      -43.548831
     ],
     [
      171.550758,
      -43.548869
     ],
     [
      171.550873,
      -43.548905
     ],
     [
      171.550969,
      -43.548934
     ],
     [
      171.551081,
      -43.548972
     ],
     [
      171.551165,
      -43.548996
     ],
     [
      171.551245,
      -43.549017
     ],
     [
      171.551317,
      -43.549034
     ],
     [
      171.551395,
      -43.549047
     ],
     [
      171.551481,
      -43.549064
     ],
     [
      171.551636,
      -43.54909
     ],
     [
      171.551819,
      -43.549117
     ],
     [
      171.551951,
      -43.54914
     ],
     [
      171.552063,
      -43.549166
     ],
     [
      171.552163,
      -43.549194
     ],
     [
      171.552275,
      -43.54923
     ],
     [
      171.552392,
      -43.54927
     ],
     [
      171.552486,
      -43.549309
     ],
     [
      171.552583,
      -43.54935
     ],
     [
      171.55268,
      -43.549403
     ],
     [
      171.552771,
      -43.549452
     ],
     [
      171.55285,
      -43.549503
     ],
     [
      171.55293,
      -43.549559
     ],
     [
      171.553006,
      -43.549616
     ],
     [
      171.553075,
      -43.54968
     ],
     [
      171.553131,
      -43.549732
     ],
     [
      171.553193,
      -43.549804
     ],
     [
      171.553265,
      -43.5499
     ],
     [
      171.553299,
      -43.549947
     ],
     [
      171.55333,
      -43.549981
     ],
     [
      171.553365,
      -43.550011
     ],
     [
      171.553393,
      -43.550032
     ],
     [
      171.553421,
      -43.550049
     ],
     [
      171.553455,
      -43.550063
     ],
     [
      171.553494,
      -43.550073
     ],
     [
      171.553537,
      -43.550081
     ],
     [
      171.553584,
      -43.550086
     ],
     [
      171.553631,
      -43.550084
     ],
     [
      171.553682,
      -43.55008
     ],
     [
      171.553738,
      -43.55007
     ],
     [
      171.553811,
      -43.550052
     ],
     [
      171.553889,
      -43.550028
     ],
     [
      171.554139,
      -43.549941
     ],
     [
      171.554231,
      -43.549916
     ],
     [
      171.55432,
      -43.549896
     ],
     [
      171.554432,
      -43.549879
     ],
     [
      171.554522,
      -43.549873
     ],
     [
      171.554614,
      -43.549871
     ],
     [
      171.554772,
      -43.549867
     ],
     [
      171.554905,
      -43.549867
     ],
     [
      171.555013,
      -43.549865
     ],
     [
      171.555098,
      -43.54986
     ],
     [
      171.55518,
      -43.549851
     ],
     [
      171.555256,
      -43.549836
     ],
     [
      171.55534,
      -43.549816
     ],
     [
      171.555434,
      -43.549791
     ],
     [
      171.555553,
      -43.549758
     ],
     [
      171.555865,
      -43.549658
     ],
     [
      171.555937,
      -43.549642
     ],
     [
      171.555998,
      -43.549631
     ],
     [
      171.556067,
      -43.549623
     ],
     [
      171.556123,
      -43.549622
     ],
     [
      171.556179,
      -43.549626
     ],
     [
      171.556228,
      -43.549634
     ],
     [
      171.556272,
      -43.549647
     ],
     [
      171.556313,
      -43.549666
     ],
     [
      171.556346,
      -43.549684
     ],
     [
      171.556391,
      -43.549718
     ],
     [
      171.556432,
      -43.549763
     ],
     [
      171.556464,
      -43.549808
     ],
     [
      171.556531,
      -43.54991
     ],
     [
      171.556566,
      -43.549963
     ],
     [
      171.556602,
      -43.550001
     ],
     [
      171.556645,
      -43.550036
     ],
     [
      171.55669,
      -43.550062
     ],
     [
      171.556733,
      -43.550082
     ],
     [
      171.556775,
      -43.550094
     ],
     [
      171.556815,
      -43.550104
     ],
     [
      171.556866,
      -43.550112
     ],
     [
      171.556917,
      -43.550114
     ],
     [
      171.556965,
      -43.550113
     ],
     [
      171.55702,
      -43.550109
     ],
     [
      171.557072,
      -43.550099
     ],
     [
      171.557167,
      -43.550077
     ],
     [
      171.557255,
      -43.55005
     ],
     [
      171.557334,
      -43.550022
     ],
     [
      171.557413,
      -43.549988
     ],
     [
      171.557529,
      -43.549933
     ],
     [
      171.557714,
      -43.549841
     ],
     [
      171.557801,
      -43.549802
     ],
     [
      171.557864,
      -43.549775
     ],
     [
      171.557933,
      -43.54975
     ],
     [
      171.558,
      -43.549729
     ],
     [
      171.558082,
      -43.54971
     ],
     [
      171.558273,
      -43.549658
     ],
     [
      171.558406,
      -43.549626
     ],
     [
      171.558552,
      -43.549586
     ],
     [
      171.558665,
      -43.54956
     ],
     [
      171.558753,
      -43.549541
     ],
     [
      171.558803,
      -43.549532
     ],
     [
      171.558856,
      -43.549529
     ],
     [
      171.55891,
      -43.549525
     ],
     [
      171.558992,
      -43.549528
     ],
     [
      171.559058,
      -43.549536
     ],
     [
      171.559128,
      -43.549546
     ],
     [
      171.559215,
      -43.549565
     ],
     [
      171.559298,
      -43.549592
     ],
     [
      171.559384,
      -43.549625
     ],
     [
      171.559522,
      -43.549689
     ],
     [
      171.559633,
      -43.549747
     ],
     [
      171.559707,
      -43.549779
     ],
     [
      171.559768,
      -43.549801
     ],
     [
      171.559834,
      -43.549821
     ],
     [
      171.5599,
      -43.549838
     ],
     [
      171.559964,
      -43.549851
     ],
     [
      171.560038,
      -43.549858
     ],
     [
      171.560109,
      -43.549865
     ],
     [
      171.560173,
      -43.549865
     ],
     [
      171.560248,
      -43.54986
     ],
     [
      171.560338,
      -43.549849
     ],
     [
      171.560426,
      -43.549833
     ],
     [
      171.560527,
      -43.549813
     ],
     [
      171.560689,
      -43.549778
     ],
     [
      171.56087,
      -43.549738
     ],
     [
      171.561035,
      -43.549697
     ],
     [
      171.561129,
      -43.549669
     ],
     [
      171.56123,
      -43.549639
     ],
     [
      171.561298,
      -43.549611
     ],
     [
      171.561426,
      -43.549556
     ],
     [
      171.561503,
      -43.549527
     ],
     [
      171.561567,
      -43.549506
     ],
     [
      171.561624,
      -43.549487
     ],
     [
      171.561693,
      -43.54947
     ],
     [
      171.561757,
      -43.549459
     ],
     [
      171.561838,
      -43.54945
     ],
     [
      171.561917,
      -43.549447
     ],
     [
      171.561988,
      -43.549447
     ],
     [
      171.562089,
      -43.549451
     ],
     [
      171.562199,
      -43.549461
     ],
     [
      171.562405,
      -43.549485
     ]
    ]
   }
  },
  {
   "type": "Feature",
   "properties": {
    "kind": "road",
    "name": "Blackford Road",
    "osmId": 47109141
   },
   "geometry": {
    "type": "LineString",
    "coordinates": [
     [
      171.620579,
      -43.524028
     ],
     [
      171.62053,
      -43.523986
     ],
     [
      171.620457,
      -43.523924
     ],
     [
      171.620418,
      -43.523872
     ],
     [
      171.620381,
      -43.523806
     ],
     [
      171.620356,
      -43.52373
     ],
     [
      171.618312,
      -43.517662
     ],
     [
      171.617324,
      -43.514742
     ],
     [
      171.617029,
      -43.51387
     ],
     [
      171.616887,
      -43.51342
     ],
     [
      171.615899,
      -43.510414
     ],
     [
      171.614811,
      -43.507473
     ],
     [
      171.614738,
      -43.507289
     ],
     [
      171.614662,
      -43.50712
     ],
     [
      171.614574,
      -43.506946
     ],
     [
      171.614474,
      -43.506771
     ],
     [
      171.613964,
      -43.505957
     ],
     [
      171.610033,
      -43.49985
     ],
     [
      171.609927,
      -43.499687
     ],
     [
      171.609811,
      -43.499527
     ],
     [
      171.609696,
      -43.499379
     ],
     [
      171.609557,
      -43.499239
     ],
     [
      171.609361,
      -43.499028
     ],
     [
      171.609112,
      -43.498793
     ],
     [
      171.608875,
      -43.498555
     ],
     [
      171.608689,
      -43.498382
     ],
     [
      171.608522,
      -43.498234
     ],
     [
      171.607682,
      -43.497613
     ],
     [
      171.602241,
      -43.493655
     ],
     [
      171.60198,
      -43.493437
     ],
     [
      171.601758,
      -43.493248
     ],
     [
      171.600767,
      -43.492375
     ],
     [
      171.592018,
      -43.484855
     ],
     [
      171.591877,
      -43.484721
     ],
     [
      171.5918,
      -43.484655
     ],
     [
      171.59174,
      -43.484582
     ],
     [
      171.591675,
      -43.484485
     ],
     [
      171.591628,
      -43.484392
     ],
     [
      171.591605,
      -43.484322
     ],
     [
      171.591583,
      -43.484237
     ],
     [
      171.591566,
      -43.484147
     ],
     [
      171.591558,
      -43.48406
     ],
     [
      171.591377,
      -43.48065
     ],
     [
      171.591365,
      -43.480471
     ],
     [
      171.591336,
      -43.480287
     ],
     [
      171.591309,
      -43.480199
     ],
     [
      171.591267,
      -43.480109
     ],
     [
      171.591223,
      -43.480033
     ],
     [
      171.591167,
      -43.479958
     ],
     [
      171.591036,
      -43.479798
     ],
     [
      171.590911,
      -43.479652
     ],
     [
      171.588119,
      -43.476572
     ],
     [
      171.588062,
      -43.476496
     ],
     [
      171.588016,
      -43.476419
     ],
     [
      171.587975,
      -43.476327
     ],
     [
      171.587953,
      -43.476231
     ],
     [
      171.58794,
      -43.476057
     ],
     [
      171.588152,
      -43.468299
     ],
     [
      171.588137,
      -43.468141
     ],
     [
      171.588115,
      -43.468047
     ],
     [
      171.588085,
      -43.467954
     ],
     [
      171.588001,
      -43.467784
     ],
     [
      171.584916,
      -43.462876
     ],
     [
      171.584832,
      -43.462709
     ],
     [
      171.584763,
      -43.462542
     ],
     [
      171.584705,
      -43.462357
     ],
     [
      171.583521,
      -43.457028
     ],
     [
      171.583498,
      -43.456839
     ],
     [
      171.583491,
      -43.456724
     ],
     [
      171.583496,
      -43.456626
     ],
     [
      171.583518,
      -43.456532
     ],
     [
      171.58356,
      -43.456436
     ],
     [
      171.583619,
      -43.456341
     ],
     [
      171.583698,
      -43.456247
     ],
     [
      171.584935,
      -43.454997
     ],
     [
      171.585047,
      -43.454886
     ],
     [
      171.585152,
      -43.454808
     ],
     [
      171.585273,
      -43.454743
     ],
     [
      171.585392,
      -43.454696
     ],
     [
      171.585503,
      -43.454663
     ],
     [
      171.585645,
      -43.454634
     ],
     [
      171.585834,
      -43.454615
     ],
     [
      171.586075,
      -43.454599
     ],
     [
      171.586235,
      -43.454582
     ],
     [
      171.586382,
      -43.45455
     ],
     [
      171.586513,
      -43.45451
     ],
     [
      171.586635,
      -43.454457
     ],
     [
      171.586749,
      -43.454393
     ],
     [
      171.58683,
      -43.454324
     ],
     [
      171.586888,
      -43.454249
     ],
     [
      171.586919,
      -43.454176
     ],
     [
      171.58693,
      -43.454093
     ],
     [
      171.586913,
      -43.454009
     ],
     [
      171.586864,
      -43.453872
     ],
     [
      171.586377,
      -43.452635
     ]
    ]
   }
  },
  {
   "type": "Feature",
   "properties": {
    "kind": "building",
    "name": "Ski School",
    "osmId": 110099664
   },
   "geometry": {
    "type": "Polygon",
    "coordinates": [
     [
      [
       171.538593,
       -43.495181
      ],
      [
       171.538502,
       -43.495285
      ],
      [
       171.538723,
       -43.495386
      ],
      [
       171.538814,
       -43.495282
      ],
      [
       171.538593,
       -43.495181
      ]
     ]
    ]
   }
  },
  {
   "type": "Feature",
   "properties": {
    "kind": "building",
    "name": "Huber's Hut",
    "osmId": 110099668
   },
   "geometry": {
    "type": "Polygon",
    "coordinates": [
     [
      [
       171.538902,
       -43.495411
      ],
      [
       171.538897,
       -43.495515
      ],
      [
       171.539364,
       -43.495527
      ],
      [
       171.539362,
       -43.495559
      ],
      [
       171.5396,
       -43.495565
      ],
      [
       171.5396,
       -43.495582
      ],
      [
       171.539826,
       -43.495588
      ],
      [
       171.539824,
       -43.495647
      ],
      [
       171.540203,
       -43.495657
      ],
      [
       171.540204,
       -43.495556
      ],
      [
       171.540222,
       -43.495556
      ],
      [
       171.540222,
       -43.495511
      ],
      [
       171.540285,
       -43.495514
      ],
      [
       171.540289,
       -43.495345
      ],
      [
       171.540228,
       -43.495344
      ],
      [
       171.540231,
       -43.495307
      ],
      [
       171.540211,
       -43.495308
      ],
      [
       171.540213,
       -43.49527
      ],
      [
       171.540027,
       -43.495264
      ],
      [
       171.540026,
       -43.495286
      ],
      [
       171.540007,
       -43.495285
      ],
      [
       171.539999,
       -43.49539
      ],
      [
       171.539771,
       -43.495384
      ],
      [
       171.539774,
       -43.495341
      ],
      [
       171.539592,
       -43.495334
      ],
      [
       171.539592,
       -43.495376
      ],
      [
       171.539554,
       -43.495376
      ],
      [
       171.539481,
       -43.495428
      ],
      [
       171.539479,
       -43.495441
      ],
      [
       171.539401,
       -43.495438
      ],
      [
       171.539401,
       -43.495423
      ],
      [
       171.538902,
       -43.495411
      ]
     ]
    ]
   }
  },
  {
   "type": "Feature",
   "properties": {
    "kind": "building",
    "name": "",
    "osmId": 627674875
   },
   "geometry": {
    "type": "Polygon",
    "coordinates": [
     [
      [
       171.539438,
       -43.494696
      ],
      [
       171.539369,
       -43.494721
      ],
      [
       171.539439,
       -43.494825
      ],
      [
       171.539369,
       -43.494843
      ],
      [
       171.5394,
       -43.494888
      ],
      [
       171.539538,
       -43.494838
      ],
      [
       171.539438,
       -43.494696
      ]
     ]
    ]
   }
  },
  {
   "type": "Feature",
   "properties": {
    "kind": "building",
    "name": "",
    "osmId": 627674877
   },
   "geometry": {
    "type": "Polygon",
    "coordinates": [
     [
      [
       171.540019,
       -43.495111
      ],
      [
       171.540059,
       -43.495099
      ],
      [
       171.540096,
       -43.495163
      ],
      [
       171.540053,
       -43.495178
      ],
      [
       171.540019,
       -43.495111
      ]
     ]
    ]
   }
  },
  {
   "type": "Feature",
   "properties": {
    "kind": "parking",
    "name": "Mount Hutt Base Area Car Park",
    "osmId": 627674880
   },
   "geometry": {
    "type": "Polygon",
    "coordinates": [
     [
      [
       171.5405,
       -43.496233
      ],
      [
       171.540434,
       -43.495937
      ],
      [
       171.538665,
       -43.495552
      ],
      [
       171.538187,
       -43.495298
      ],
      [
       171.5372,
       -43.495316
      ],
      [
       171.536838,
       -43.495344
      ],
      [
       171.536628,
       -43.495411
      ],
      [
       171.536454,
       -43.495477
      ],
      [
       171.536365,
       -43.495551
      ],
      [
       171.536381,
       -43.495682
      ],
      [
       171.537273,
       -43.49557
      ],
      [
       171.537657,
       -43.495612
      ],
      [
       171.538188,
       -43.495714
      ],
      [
       171.539272,
       -43.495999
      ],
      [
       171.540533,
       -43.496383
      ],
      [
       171.5405,
       -43.496233
      ]
     ]
    ]
   }
  },
  {
   "type": "Feature",
   "properties": {
    "kind": "parking",
    "name": "Rakaia Saddle Car Park",
    "osmId": 627674881
   },
   "geometry": {
    "type": "Polygon",
    "coordinates": [
     [
      [
       171.549513,
       -43.512129
      ],
      [
       171.549158,
       -43.512617
      ],
      [
       171.549243,
       -43.512752
      ],
      [
       171.549361,
       -43.512811
      ],
      [
       171.549475,
       -43.512826
      ],
      [
       171.549769,
       -43.512816
      ],
      [
       171.550726,
       -43.512847
      ],
      [
       171.550786,
       -43.512849
      ],
      [
       171.55005,
       -43.511739
      ],
      [
       171.550002,
       -43.511762
      ],
      [
       171.549917,
       -43.511803
      ],
      [
       171.549513,
       -43.512129
      ]
     ]
    ]
   }
  },
  {
   "type": "Feature",
   "properties": {
    "kind": "parking",
    "name": "Zed Creek Car Park",
    "osmId": 627674882
   },
   "geometry": {
    "type": "Polygon",
    "coordinates": [
     [
      [
       171.550109,
       -43.517154
      ],
      [
       171.549669,
       -43.517718
      ],
      [
       171.550369,
       -43.518007
      ],
      [
       171.551057,
       -43.516823
      ],
      [
       171.550779,
       -43.51654
      ],
      [
       171.550707,
       -43.516559
      ],
      [
       171.5506,
       -43.516587
      ],
      [
       171.550593,
       -43.516679
      ],
      [
       171.550564,
       -43.516766
      ],
      [
       171.550451,
       -43.517041
      ],
      [
       171.550404,
       -43.517154
      ],
      [
       171.550109,
       -43.517154
      ]
     ]
    ]
   }
  },
  {
   "type": "Feature",
   "properties": {
    "kind": "parking",
    "name": "",
    "osmId": 627674884
   },
   "geometry": {
    "type": "Polygon",
    "coordinates": [
     [
      [
       171.54115,
       -43.496294
      ],
      [
       171.54107,
       -43.496325
      ],
      [
       171.540968,
       -43.496124
      ],
      [
       171.540838,
       -43.495645
      ],
      [
       171.540758,
       -43.495573
      ],
      [
       171.540707,
       -43.495468
      ],
      [
       171.540695,
       -43.495295
      ],
      [
       171.540766,
       -43.495315
      ],
      [
       171.540983,
       -43.495379
      ],
      [
       171.541215,
       -43.496268
      ],
      [
       171.54115,
       -43.496294
      ]
     ]
    ]
   }
  },
  {
   "type": "Feature",
   "properties": {
    "kind": "road",
    "name": "",
    "osmId": 627674885
   },
   "geometry": {
    "type": "LineString",
    "coordinates": [
     [
      171.541363,
      -43.49803
     ],
     [
      171.541375,
      -43.497733
     ],
     [
      171.54131,
      -43.496683
     ],
     [
      171.541298,
      -43.496614
     ],
     [
      171.541276,
      -43.496537
     ],
     [
      171.541242,
      -43.496442
     ],
     [
      171.54115,
      -43.496294
     ],
     [
      171.541088,
      -43.496171
     ],
     [
      171.541034,
      -43.496024
     ],
     [
      171.540922,
      -43.495644
     ],
     [
      171.54088,
      -43.495559
     ],
     [
      171.540828,
      -43.495501
     ],
     [
      171.540791,
      -43.495445
     ],
     [
      171.540767,
      -43.495397
     ],
     [
      171.540762,
      -43.495357
     ],
     [
      171.540766,
      -43.495315
     ],
     [
      171.540786,
      -43.495221
     ],
     [
      171.540782,
      -43.495188
     ],
     [
      171.540758,
      -43.495153
     ],
     [
      171.54072,
      -43.495125
     ],
     [
      171.540675,
      -43.49511
     ],
     [
      171.540591,
      -43.495109
     ],
     [
      171.540512,
      -43.495128
     ],
     [
      171.540455,
      -43.495157
     ],
     [
      171.540407,
      -43.495201
     ],
     [
      171.540374,
      -43.495253
     ],
     [
      171.540363,
      -43.495325
     ],
     [
      171.540363,
      -43.4954
     ],
     [
      171.540381,
      -43.495476
     ],
     [
      171.540473,
      -43.495623
     ],
     [
      171.540532,
      -43.495744
     ],
     [
      171.540561,
      -43.495863
     ],
     [
      171.540569,
      -43.495916
     ],
     [
      171.540565,
      -43.495966
     ],
     [
      171.540549,
      -43.496057
     ],
     [
      171.5405,
      -43.496233
     ]
    ]
   }
  },
  {
   "type": "Feature",
   "properties": {
    "kind": "road",
    "name": "",
    "osmId": 888815305
   },
   "geometry": {
    "type": "LineString",
    "coordinates": [
     [
      171.60511,
      -43.4959
     ],
     [
      171.604015,
      -43.496616
     ],
     [
      171.601059,
      -43.49855
     ],
     [
      171.600604,
      -43.498846
     ],
     [
      171.600475,
      -43.498784
     ],
     [
      171.599654,
      -43.498048
     ],
     [
      171.59916,
      -43.497628
     ],
     [
      171.598973,
      -43.497713
     ],
     [
      171.597712,
      -43.49783
     ],
     [
      171.597385,
      -43.497842
     ],
     [
      171.597047,
      -43.497663
     ]
    ]
   }
  },
  {
   "type": "Feature",
   "properties": {
    "kind": "road",
    "name": "",
    "osmId": 888815307
   },
   "geometry": {
    "type": "LineString",
    "coordinates": [
     [
      171.602241,
      -43.493655
     ],
     [
      171.601859,
      -43.494013
     ],
     [
      171.599708,
      -43.495826
     ],
     [
      171.598115,
      -43.497191
     ],
     [
      171.597803,
      -43.497459
     ],
     [
      171.597385,
      -43.497842
     ]
    ]
   }
  },
  {
   "type": "Feature",
   "properties": {
    "kind": "road",
    "name": "",
    "osmId": 888815310
   },
   "geometry": {
    "type": "LineString",
    "coordinates": [
     [
      171.599109,
      -43.50356
     ],
     [
      171.599523,
      -43.503385
     ],
     [
      171.599724,
      -43.503219
     ],
     [
      171.599823,
      -43.503044
     ],
     [
      171.599836,
      -43.502953
     ],
     [
      171.599788,
      -43.502836
     ],
     [
      171.599783,
      -43.502772
     ],
     [
      171.600705,
      -43.502149
     ],
     [
      171.602307,
      -43.501079
     ],
     [
      171.603819,
      -43.500087
     ],
     [
      171.605308,
      -43.499089
     ],
     [
      171.60733,
      -43.497733
     ],
     [
      171.60755,
      -43.497663
     ],
     [
      171.607682,
      -43.497613
     ]
    ]
   }
  },
  {
   "type": "Feature",
   "properties": {
    "kind": "building",
    "name": "",
    "osmId": 922412166
   },
   "geometry": {
    "type": "Polygon",
    "coordinates": [
     [
      [
       171.541058,
       -43.495189
      ],
      [
       171.541031,
       -43.495269
      ],
      [
       171.540871,
       -43.495241
      ],
      [
       171.540938,
       -43.495039
      ],
      [
       171.541094,
       -43.495067
      ],
      [
       171.541068,
       -43.495147
      ],
      [
       171.541112,
       -43.495154
      ],
      [
       171.541098,
       -43.495196
      ],
      [
       171.541058,
       -43.495189
      ]
     ]
    ]
   }
  },
  {
   "type": "Feature",
   "properties": {
    "kind": "road",
    "name": "",
    "osmId": 996000686
   },
   "geometry": {
    "type": "LineString",
    "coordinates": [
     [
      171.588595,
      -43.493264
     ],
     [
      171.589008,
      -43.493633
     ],
     [
      171.589229,
      -43.494188
     ],
     [
      171.589453,
      -43.49481
     ],
     [
      171.586846,
      -43.509847
     ],
     [
      171.587602,
      -43.511985
     ],
     [
      171.588523,
      -43.514043
     ],
     [
      171.587129,
      -43.516804
     ],
     [
      171.591712,
      -43.519375
     ],
     [
      171.594339,
      -43.522157
     ],
     [
      171.595043,
      -43.522623
     ],
     [
      171.595371,
      -43.522737
     ],
     [
      171.596607,
      -43.522003
     ],
     [
      171.601465,
      -43.520285
     ],
     [
      171.605259,
      -43.517659
     ],
     [
      171.612829,
      -43.514945
     ],
     [
      171.614014,
      -43.513862
     ],
     [
      171.614529,
      -43.513326
     ],
     [
      171.614797,
      -43.513308
     ],
     [
      171.615061,
      -43.513289
     ],
     [
      171.615542,
      -43.513389
     ],
     [
      171.616348,
      -43.513501
     ],
     [
      171.616887,
      -43.51342
     ]
    ]
   }
  },
  {
   "type": "Feature",
   "properties": {
    "kind": "road",
    "name": "Mt Hutt Skifield Road",
    "osmId": 1418571072
   },
   "geometry": {
    "type": "LineString",
    "coordinates": [
     [
      171.5405,
      -43.496233
     ],
     [
      171.540617,
      -43.496305
     ],
     [
      171.54075,
      -43.496396
     ],
     [
      171.540884,
      -43.496509
     ],
     [
      171.540964,
      -43.496601
     ],
     [
      171.541029,
      -43.496697
     ],
     [
      171.541069,
      -43.496789
     ],
     [
      171.541363,
      -43.49803
     ],
     [
      171.541454,
      -43.498503
     ],
     [
      171.541473,
      -43.498631
     ],
     [
      171.541477,
      -43.498735
     ],
     [
      171.541473,
      -43.498842
     ],
     [
      171.541454,
      -43.499078
     ],
     [
      171.541409,
      -43.499769
     ],
     [
      171.541413,
      -43.499854
     ],
     [
      171.541426,
      -43.499916
     ],
     [
      171.541451,
      -43.499988
     ],
     [
      171.541487,
      -43.500083
     ],
     [
      171.541551,
      -43.500228
     ],
     [
      171.541644,
      -43.500407
     ],
     [
      171.541779,
      -43.500689
     ],
     [
      171.54185,
      -43.500824
     ],
     [
      171.541906,
      -43.500904
     ],
     [
      171.541973,
      -43.500982
     ],
     [
      171.542059,
      -43.501085
     ],
     [
      171.542202,
      -43.501233
     ],
     [
      171.542248,
      -43.501291
     ],
     [
      171.542293,
      -43.501371
     ],
     [
      171.542335,
      -43.501456
     ],
     [
      171.542477,
      -43.501756
     ],
     [
      171.542503,
      -43.501811
     ],
     [
      171.542531,
      -43.501852
     ],
     [
      171.542571,
      -43.501889
     ],
     [
      171.542644,
      -43.501926
     ],
     [
      171.542851,
      -43.502017
     ],
     [
      171.542927,
      -43.502061
     ],
     [
      171.542976,
      -43.502108
     ],
     [
      171.54302,
      -43.50217
     ],
     [
      171.543052,
      -43.502241
     ],
     [
      171.543077,
      -43.50235
     ],
     [
      171.543061,
      -43.502439
     ],
     [
      171.543036,
      -43.502514
     ],
     [
      171.542986,
      -43.502602
     ],
     [
      171.542961,
      -43.50265
     ],
     [
      171.542952,
      -43.502691
     ],
     [
      171.54296,
      -43.502735
     ],
     [
      171.542985,
      -43.502786
     ],
     [
      171.543032,
      -43.502845
     ],
     [
      171.543107,
      -43.502947
     ],
     [
      171.543139,
      -43.503013
     ],
     [
      171.543163,
      -43.503078
     ],
     [
      171.543177,
      -43.503178
     ],
     [
      171.54319,
      -43.503243
     ],
     [
      171.543198,
      -43.503291
     ],
     [
      171.543221,
      -43.50335
     ],
     [
      171.54325,
      -43.503428
     ],
     [
      171.543263,
      -43.503487
     ],
     [
      171.543264,
      -43.503541
     ],
     [
      171.543252,
      -43.503603
     ],
     [
      171.543225,
      -43.503691
     ],
     [
      171.543206,
      -43.503772
     ],
     [
      171.543204,
      -43.50383
     ],
     [
      171.543212,
      -43.503876
     ],
     [
      171.543229,
      -43.50392
     ],
     [
      171.543263,
      -43.503956
     ],
     [
      171.543308,
      -43.503983
     ],
     [
      171.543375,
      -43.504006
     ],
     [
      171.543484,
      -43.504029
     ],
     [
      171.543611,
      -43.504043
     ],
     [
      171.543772,
      -43.504063
     ],
     [
      171.543897,
      -43.504091
     ],
     [
      171.544018,
      -43.504121
     ],
     [
      171.544134,
      -43.504163
     ],
     [
      171.544236,
      -43.504214
     ],
     [
      171.54434,
      -43.504283
     ],
     [
      171.544537,
      -43.504448
     ],
     [
      171.544672,
      -43.504564
     ],
     [
      171.544727,
      -43.504622
     ],
     [
      171.544764,
      -43.504681
     ],
     [
      171.54479,
      -43.504742
     ],
     [
      171.544799,
      -43.504824
     ],
     [
      171.544792,
      -43.504915
     ],
     [
      171.544706,
      -43.505434
     ],
     [
      171.544613,
      -43.505861
     ]
    ]
   }
  },
  {
   "type": "Feature",
   "properties": {
    "kind": "road",
    "name": "",
    "osmId": 1418571073
   },
   "geometry": {
    "type": "LineString",
    "coordinates": [
     [
      171.536486,
      -43.495584
     ],
     [
      171.537331,
      -43.495486
     ],
     [
      171.537537,
      -43.495486
     ],
     [
      171.537733,
      -43.495498
     ],
     [
      171.537987,
      -43.495531
     ],
     [
      171.538242,
      -43.495581
     ],
     [
      171.538598,
      -43.495668
     ],
     [
      171.540307,
      -43.496165
     ],
     [
      171.5405,
      -43.496233
     ]
    ]
   }
  },
  {
   "type": "Feature",
   "properties": {
    "kind": "road",
    "name": "",
    "osmId": 1418571074
   },
   "geometry": {
    "type": "LineString",
    "coordinates": [
     [
      171.550867,
      -43.513321
     ],
     [
      171.550842,
      -43.513102
     ],
     [
      171.550823,
      -43.513023
     ],
     [
      171.550788,
      -43.512946
     ],
     [
      171.550726,
      -43.512847
     ],
     [
      171.550417,
      -43.512367
     ],
     [
      171.550262,
      -43.512152
     ],
     [
      171.550002,
      -43.511762
     ],
     [
      171.549897,
      -43.511619
     ],
     [
      171.549815,
      -43.511527
     ],
     [
      171.549749,
      -43.511459
     ],
     [
      171.549666,
      -43.511384
     ]
    ]
   }
  },
  {
   "type": "Feature",
   "properties": {
    "kind": "road",
    "name": "",
    "osmId": 1418571075
   },
   "geometry": {
    "type": "LineString",
    "coordinates": [
     [
      171.549819,
      -43.51697
     ],
     [
      171.549955,
      -43.516996
     ],
     [
      171.550089,
      -43.517015
     ],
     [
      171.550229,
      -43.517029
     ],
     [
      171.550376,
      -43.517041
     ],
     [
      171.550451,
      -43.517041
     ],
     [
      171.550531,
      -43.517029
     ],
     [
      171.550598,
      -43.517003
     ],
     [
      171.550676,
      -43.516958
     ],
     [
      171.550725,
      -43.516895
     ],
     [
      171.550759,
      -43.516828
     ],
     [
      171.550777,
      -43.516764
     ],
     [
      171.550776,
      -43.516697
     ],
     [
      171.550756,
      -43.51664
     ],
     [
      171.550707,
      -43.516559
     ],
     [
      171.550656,
      -43.516489
     ],
     [
      171.5506,
      -43.516444
     ],
     [
      171.550542,
      -43.516413
     ],
     [
      171.550458,
      -43.516376
     ]
    ]
   }
  },
  {
   "type": "Feature",
   "properties": {
    "kind": "road",
    "name": "",
    "osmId": 1418571076
   },
   "geometry": {
    "type": "LineString",
    "coordinates": [
     [
      171.550598,
      -43.517003
     ],
     [
      171.550617,
      -43.517059
     ],
     [
      171.550622,
      -43.517096
     ],
     [
      171.550615,
      -43.517133
     ],
     [
      171.550597,
      -43.517181
     ],
     [
      171.55052,
      -43.517297
     ],
     [
      171.550192,
      -43.517794
     ]
    ]
   }
  },
  {
   "type": "Feature",
   "properties": {
    "kind": "parking",
    "name": "Scotts Saddle Track Car Park",
    "osmId": 1418579233
   },
   "geometry": {
    "type": "Polygon",
    "coordinates": [
     [
      [
       171.53683,
       -43.533219
      ],
      [
       171.536948,
       -43.533191
      ],
      [
       171.537157,
       -43.53355
      ],
      [
       171.537278,
       -43.533858
      ],
      [
       171.537142,
       -43.533875
      ],
      [
       171.537084,
       -43.533684
      ],
      [
       171.537017,
       -43.533549
      ],
      [
       171.53692,
       -43.533399
      ],
      [
       171.53683,
       -43.533219
      ]
     ]
    ]
   }
  },
  {
   "type": "Feature",
   "properties": {
    "kind": "road",
    "name": "",
    "osmId": 1419072271
   },
   "geometry": {
    "type": "LineString",
    "coordinates": [
     [
      171.5405,
      -43.496233
     ],
     [
      171.539804,
      -43.496254
     ],
     [
      171.539582,
      -43.496266
     ],
     [
      171.53941,
      -43.496277
     ],
     [
      171.539292,
      -43.496294
     ],
     [
      171.53918,
      -43.496325
     ],
     [
      171.539066,
      -43.496359
     ],
     [
      171.538973,
      -43.496394
     ],
     [
      171.538929,
      -43.496421
     ],
     [
      171.5389,
      -43.49645
     ],
     [
      171.538895,
      -43.496483
     ],
     [
      171.538902,
      -43.496521
     ],
     [
      171.538919,
      -43.49656
     ],
     [
      171.538951,
      -43.496599
     ],
     [
      171.539119,
      -43.496735
     ],
     [
      171.539227,
      -43.496803
     ],
     [
      171.539391,
      -43.496874
     ],
     [
      171.539629,
      -43.496954
     ],
     [
      171.539881,
      -43.497015
     ],
     [
      171.540088,
      -43.497061
     ],
     [
      171.540144,
      -43.497078
     ],
     [
      171.5402,
      -43.497104
     ],
     [
      171.540235,
      -43.49713
     ],
     [
      171.54027,
      -43.497167
     ],
     [
      171.540331,
      -43.497245
     ],
     [
      171.540402,
      -43.497369
     ],
     [
      171.540418,
      -43.497422
     ],
     [
      171.540418,
      -43.497478
     ],
     [
      171.540409,
      -43.497546
     ],
     [
      171.540361,
      -43.49801
     ],
     [
      171.540316,
      -43.498381
     ],
     [
      171.540267,
      -43.4988
     ],
     [
      171.54026,
      -43.499043
     ],
     [
      171.540247,
      -43.499208
     ],
     [
      171.540239,
      -43.499256
     ],
     [
      171.540231,
      -43.499274
     ],
     [
      171.540222,
      -43.499285
     ],
     [
      171.540211,
      -43.499291
     ],
     [
      171.540198,
      -43.499294
     ],
     [
      171.540187,
      -43.499289
     ],
     [
      171.540177,
      -43.499281
     ],
     [
      171.540169,
      -43.499266
     ],
     [
      171.540163,
      -43.499244
     ],
     [
      171.540156,
      -43.499198
     ],
     [
      171.54014,
      -43.49915
     ],
     [
      171.540078,
      -43.499043
     ],
     [
      171.539956,
      -43.498868
     ],
     [
      171.539802,
      -43.498676
     ],
     [
      171.539624,
      -43.498427
     ],
     [
      171.539547,
      -43.498327
     ],
     [
      171.539507,
      -43.498264
     ],
     [
      171.539467,
      -43.498193
     ],
     [
      171.539453,
      -43.498174
     ],
     [
      171.539437,
      -43.498161
     ],
     [
      171.539421,
      -43.498152
     ],
     [
      171.539404,
      -43.49815
     ],
     [
      171.539385,
      -43.498152
     ],
     [
      171.539371,
      -43.498158
     ],
     [
      171.539359,
      -43.498169
     ],
     [
      171.539349,
      -43.498185
     ],
     [
      171.539339,
      -43.498204
     ],
     [
      171.539281,
      -43.49835
     ],
     [
      171.539235,
      -43.498526
     ],
     [
      171.539205,
      -43.498662
     ],
     [
      171.539193,
      -43.498772
     ],
     [
      171.539193,
      -43.498896
     ],
     [
      171.539207,
      -43.499021
     ],
     [
      171.539226,
      -43.499172
     ],
     [
      171.539233,
      -43.499292
     ],
     [
      171.539233,
      -43.499476
     ],
     [
      171.539231,
      -43.499579
     ],
     [
      171.539227,
      -43.499621
     ],
     [
      171.539215,
      -43.499662
     ],
     [
      171.539197,
      -43.499703
     ],
     [
      171.539185,
      -43.499741
     ],
     [
      171.539176,
      -43.499784
     ],
     [
      171.539174,
      -43.49983
     ],
     [
      171.53918,
      -43.499922
     ],
     [
      171.539182,
      -43.49998
     ],
     [
      171.539178,
      -43.500049
     ],
     [
      171.539169,
      -43.500118
     ],
     [
      171.539163,
      -43.500146
     ],
     [
      171.539157,
      -43.500161
     ],
     [
      171.53915,
      -43.500168
     ],
     [
      171.539141,
      -43.500174
     ],
     [
      171.539128,
      -43.500177
     ],
     [
      171.539116,
      -43.500177
     ],
     [
      171.539106,
      -43.500174
     ],
     [
      171.539094,
      -43.500167
     ],
     [
      171.539088,
      -43.50016
     ],
     [
      171.539081,
      -43.500149
     ],
     [
      171.539075,
      -43.500133
     ],
     [
      171.53906,
      -43.500099
     ],
     [
      171.539027,
      -43.500045
     ],
     [
      171.538978,
      -43.499977
     ],
     [
      171.538912,
      -43.499898
     ],
     [
      171.538809,
      -43.499798
     ],
     [
      171.538668,
      -43.499657
     ],
     [
      171.538605,
      -43.499599
     ],
     [
      171.538537,
      -43.499549
     ],
     [
      171.538463,
      -43.499501
     ],
     [
      171.53841,
      -43.499468
     ],
     [
      171.538366,
      -43.499438
     ],
     [
      171.53833,
      -43.499411
     ],
     [
      171.5383,
      -43.499379
     ],
     [
      171.538272,
      -43.499339
     ],
     [
      171.538237,
      -43.499289
     ],
     [
      171.538213,
      -43.499268
     ],
     [
      171.53819,
      -43.499257
     ],
     [
      171.538171,
      -43.499252
     ],
     [
      171.538154,
      -43.499251
     ],
     [
      171.538129,
      -43.499252
     ],
     [
      171.538099,
      -43.499257
     ],
     [
      171.538023,
      -43.49927
     ],
     [
      171.537984,
      -43.499276
     ],
     [
      171.537949,
      -43.499276
     ],
     [
      171.537916,
      -43.499275
     ],
     [
      171.537866,
      -43.49927
     ],
     [
      171.537834,
      -43.499263
     ],
     [
      171.537794,
      -43.499252
     ],
     [
      171.537745,
      -43.499237
     ],
     [
      171.537701,
      -43.499216
     ],
     [
      171.53765,
      -43.499186
     ],
     [
      171.537584,
      -43.499138
     ],
     [
      171.53755,
      -43.499115
     ],
     [
      171.537529,
      -43.499106
     ],
     [
      171.53749,
      -43.499096
     ],
     [
      171.537458,
      -43.499096
     ],
     [
      171.537425,
      -43.499099
     ],
     [
      171.537387,
      -43.499109
     ],
     [
      171.537122,
      -43.499179
     ],
     [
      171.53709,
      -43.49919
     ],
     [
      171.537064,
      -43.499206
     ]
    ]
   }
  },
  {
   "type": "Feature",
   "properties": {
    "kind": "road",
    "name": "",
    "osmId": 1464251063
   },
   "geometry": {
    "type": "LineString",
    "coordinates": [
     [
      171.597803,
      -43.497459
     ],
     [
      171.597851,
      -43.497533
     ],
     [
      171.597921,
      -43.497614
     ],
     [
      171.59802,
      -43.497667
     ],
     [
      171.598117,
      -43.497688
     ],
     [
      171.598224,
      -43.497677
     ],
     [
      171.598313,
      -43.497634
     ],
     [
      171.59834,
      -43.497568
     ],
     [
      171.598342,
      -43.497476
     ],
     [
      171.598256,
      -43.497334
     ],
     [
      171.598115,
      -43.497191
     ]
    ]
   }
  }
 ]
}
